{
"type": "FeatureCollection",
"name": "ESTACIONES_Y_EDIFICIOS_AUXILIARES_TSNL_1805",
"crs": { "type": "name", "properties": { "name": "urn:ogc:def:crs:OGC:1.3:CRS84" } },
"features": [
{ "type": "Feature", "properties": { "CLAVE": "SNL-RAM-010-1-GS", "PROYECTO": "TSNL", "ESTRUCTURA": "Estación", "SEGMENTO": "S13", "ESTADO": "Coahuila de Zaragoza", "MUNICIPIO": "Ramos Arizpe", "PROPIETARIO": "Olga Gutiérrez Saucedo", "M2": 206.452, "ESTATUS": "Sin avance", "COP": "NO" }, "geometry": { "type": "MultiPolygon", "coordinates": [ [ [ [ -100.951931212556218, 25.543209921408629 ], [ -100.951907635308885, 25.543291082043709 ], [ -100.951694143153858, 25.543236739300632 ], [ -100.951719103355131, 25.543155997561072 ], [ -100.951931212556218, 25.543209921408629 ] ] ] ] } },
{ "type": "Feature", "properties": { "CLAVE": "SNL-RAM-010-7-GS", "PROYECTO": "TSNL", "ESTRUCTURA": "Estación", "SEGMENTO": "S13", "ESTADO": "Coahuila de Zaragoza", "MUNICIPIO": "Ramos Arizpe", "PROPIETARIO": "Salomón Valdez Flores", "M2": 1666.736, "ESTATUS": "Sin avance", "COP": "NO" }, "geometry": { "type": "MultiPolygon", "coordinates": [ [ [ [ -100.953797323544336, 25.54600489407413 ], [ -100.952600320449918, 25.544649762852011 ], [ -100.952665670228811, 25.544592282089244 ], [ -100.953854593580274, 25.545950900956786 ], [ -100.953797323544336, 25.54600489407413 ] ] ] ] } },
{ "type": "Feature", "properties": { "CLAVE": "SNL-RAM-010-7-GS", "PROYECTO": "TSNL", "ESTRUCTURA": "Estación", "SEGMENTO": "S13", "ESTADO": "Coahuila de Zaragoza", "MUNICIPIO": "Ramos Arizpe", "PROPIETARIO": "Rosendo Flores 2", "M2": 7080.456, "ESTATUS": "Sin avance", "COP": "NO" }, "geometry": { "type": "MultiPolygon", "coordinates": [ [ [ [ -100.953508768102253, 25.546231254878609 ], [ -100.952431633059888, 25.545014149797701 ], [ -100.952545954761078, 25.54469640474116 ], [ -100.952600320449918, 25.544649762852011 ], [ -100.953797323544336, 25.546004894074123 ], [ -100.953508768102253, 25.546231254878609 ] ] ] ] } },
{ "type": "Feature", "properties": { "CLAVE": "SNL-RAM-010-5-GS, SNL-RAM-010-6-GS", "PROYECTO": "TSNL", "ESTRUCTURA": "Estación", "SEGMENTO": "S13", "ESTADO": "Coahuila de Zaragoza", "MUNICIPIO": "Ramos Arizpe", "PROPIETARIO": "Desconocido 2", "M2": 231.153, "ESTATUS": "Sin avance", "COP": "NO" }, "geometry": { "type": "MultiPolygon", "coordinates": [ [ [ [ -100.952280245712032, 25.544681924550442 ], [ -100.952258648562207, 25.544677827105492 ], [ -100.952261406179346, 25.544665864588204 ], [ -100.95228288699596, 25.544576709939378 ], [ -100.952344561882342, 25.544301700666477 ], [ -100.952448270326059, 25.543854096486335 ], [ -100.952479902682171, 25.543884084788335 ], [ -100.952372993348831, 25.544272813788321 ], [ -100.952318993620779, 25.544503192111463 ], [ -100.952280245712032, 25.544681924550442 ] ] ] ] } },
{ "type": "Feature", "properties": { "CLAVE": "SNL-RAM-010-1-GS", "PROYECTO": "TSNL", "ESTRUCTURA": "Estación", "SEGMENTO": "S13", "ESTADO": "Coahuila de Zaragoza", "MUNICIPIO": "Ramos Arizpe", "PROPIETARIO": "Blas García Gutiérrez", "M2": 211.335, "ESTATUS": "Sin avance", "COP": "NO" }, "geometry": { "type": "MultiPolygon", "coordinates": [ [ [ [ -100.952143823317954, 25.543261962789227 ], [ -100.952096959092216, 25.543428129884109 ], [ -100.951989502328317, 25.543401088523641 ], [ -100.95203584856597, 25.543237257950533 ], [ -100.952143823317954, 25.543261962789227 ] ] ] ] } },
{ "type": "Feature", "properties": { "CLAVE": "SNL-RAM-010-1-GS", "PROYECTO": "TSNL", "ESTRUCTURA": "Estación", "SEGMENTO": "S13", "ESTADO": "Coahuila de Zaragoza", "MUNICIPIO": "Ramos Arizpe", "PROPIETARIO": "Tomás Gutiérrez Padilla", "M2": 203.957, "ESTATUS": "Sin avance", "COP": "NO" }, "geometry": { "type": "MultiPolygon", "coordinates": [ [ [ [ -100.952096959092216, 25.543428129884109 ], [ -100.952074136093358, 25.543509138770453 ], [ -100.951859602659511, 25.54345223767038 ], [ -100.951882801246853, 25.543374236779943 ], [ -100.952096959092216, 25.543428129884109 ] ] ] ] } },
{ "type": "Feature", "properties": { "CLAVE": "SNL-RAM-010-1-GS", "PROYECTO": "TSNL", "ESTRUCTURA": "Estación", "SEGMENTO": "S13", "ESTADO": "Coahuila de Zaragoza", "MUNICIPIO": "Ramos Arizpe", "PROPIETARIO": "Doraelia Gutiérrez Padilla", "M2": 206.517, "ESTATUS": "Sin avance", "COP": "NO" }, "geometry": { "type": "MultiPolygon", "coordinates": [ [ [ [ -100.951907635308885, 25.543291082043716 ], [ -100.95188356525891, 25.543371667931403 ], [ -100.951669306009535, 25.543317133123086 ], [ -100.951694143154171, 25.543236739299608 ], [ -100.951907635308885, 25.543291082043716 ] ] ] ] } },
{ "type": "Feature", "properties": { "CLAVE": "SNL-RAM-010-1-GS", "PROYECTO": "TSNL", "ESTRUCTURA": "Estación", "SEGMENTO": "S13", "ESTADO": "Coahuila de Zaragoza", "MUNICIPIO": "Ramos Arizpe", "PROPIETARIO": "Angelina Gutiérrez Zertuche", "M2": 207.261, "ESTATUS": "Sin avance", "COP": "NO" }, "geometry": { "type": "MultiPolygon", "coordinates": [ [ [ [ -100.95188356525891, 25.543371667931403 ], [ -100.951859602659511, 25.54345223767038 ], [ -100.951644466323287, 25.543397535074401 ], [ -100.951669305739983, 25.543317133054476 ], [ -100.95188356525891, 25.543371667931403 ] ] ] ] } },
{ "type": "Feature", "properties": { "CLAVE": "SNL-RAM-010-GS", "PROYECTO": "TSNL", "ESTRUCTURA": "Estación", "SEGMENTO": "S13", "ESTADO": "Coahuila de Zaragoza", "MUNICIPIO": "Ramos Arizpe", "PROPIETARIO": "Celia Gabriela Castillo", "M2": 263.139, "ESTATUS": "Sin avance", "COP": "NO" }, "geometry": { "type": "MultiPolygon", "coordinates": [ [ [ [ -100.952256628687906, 25.542915332200828 ], [ -100.952228310418988, 25.543033151013908 ], [ -100.952211238976787, 25.543113558110228 ], [ -100.952192643504446, 25.543192052929101 ], [ -100.952080525254132, 25.543160748721018 ], [ -100.952206290979873, 25.542903849498064 ], [ -100.952256628687906, 25.542915332200828 ] ] ] ] } },
{ "type": "Feature", "properties": { "CLAVE": "SNL-RAM-010-1-GS", "PROYECTO": "TSNL", "ESTRUCTURA": "Estación", "SEGMENTO": "S13", "ESTADO": "Coahuila de Zaragoza", "MUNICIPIO": "Ramos Arizpe", "PROPIETARIO": "Desconocido 1", "M2": 109.346, "ESTATUS": "Sin avance", "COP": "NO" }, "geometry": { "type": "MultiPolygon", "coordinates": [ [ [ [ -100.9521161725864, 25.543523738157877 ], [ -100.952072976019679, 25.543512968205434 ], [ -100.952074136093358, 25.543509138770453 ], [ -100.952096959092216, 25.543428129884109 ], [ -100.95214319770183, 25.543264181047192 ], [ -100.952174414937133, 25.543270484430288 ], [ -100.952170053675616, 25.543290163808312 ], [ -100.952160827392149, 25.543331790782343 ], [ -100.95214989824089, 25.543373089306208 ], [ -100.952148702294679, 25.543378008779825 ], [ -100.952138929932246, 25.54342210563 ], [ -100.952129222376669, 25.543465903720978 ], [ -100.952119057828014, 25.543510729773597 ], [ -100.952118924149502, 25.543511322831804 ], [ -100.9521161725864, 25.543523738157877 ] ] ] ] } },
{ "type": "Feature", "properties": { "CLAVE": "SNL-RAM-010-3-GS, SNL-RAM-010-4-GS", "PROYECTO": "TSNL", "ESTRUCTURA": "Estación", "SEGMENTO": "S13", "ESTADO": "Coahuila de Zaragoza", "MUNICIPIO": "Ramos Arizpe", "PROPIETARIO": "Parque Público", "M2": 2297.072, "ESTATUS": "Sin avance", "COP": "NO" }, "geometry": { "type": "MultiPolygon", "coordinates": [ [ [ [ -100.952777332679275, 25.544166055097111 ], [ -100.952479902682171, 25.543884084788335 ], [ -100.952448270326059, 25.543854096486331 ], [ -100.95245902936955, 25.543807660440834 ], [ -100.952499888120556, 25.543664414076833 ], [ -100.952537176837794, 25.543529837444154 ], [ -100.952559706018988, 25.543534111166569 ], [ -100.952832664654892, 25.54358589034965 ], [ -100.952885712892524, 25.543705806836346 ], [ -100.952915640826745, 25.543775401439632 ], [ -100.952938298015525, 25.54385187112165 ], [ -100.952944377025744, 25.543883940343459 ], [ -100.95295001441157, 25.543903090322662 ], [ -100.952949749651694, 25.543918595361077 ], [ -100.952947660195591, 25.543964799911432 ], [ -100.952890740973402, 25.544045696196854 ], [ -100.952871531256122, 25.544067854936056 ], [ -100.952865919305239, 25.544074894964719 ], [ -100.952850760830074, 25.544091912363395 ], [ -100.952825237422502, 25.54411996800258 ], [ -100.952812907723185, 25.544133520951583 ], [ -100.952784787948445, 25.544160258959923 ], [ -100.952777332679275, 25.544166055097111 ] ] ] ] } },
{ "type": "Feature", "properties": { "CLAVE": "SNL-RAM-010-5-GS", "PROYECTO": "TSNL", "ESTRUCTURA": "Estación", "SEGMENTO": "S13", "ESTADO": "Coahuila de Zaragoza", "MUNICIPIO": "Ramos Arizpe", "PROPIETARIO": "Ramón Juárez", "M2": 1135.827, "ESTATUS": "Sin avance", "COP": "NO" }, "geometry": { "type": "MultiPolygon", "coordinates": [ [ [ [ -100.95257160346253, 25.544364412437236 ], [ -100.952372993348831, 25.544272813788329 ], [ -100.952479902682171, 25.543884084788335 ], [ -100.952777332679275, 25.544166055097111 ], [ -100.95257160346253, 25.544364412437236 ] ] ] ] } },
{ "type": "Feature", "properties": { "CLAVE": "SNL-RAM-010-5-GS, SNL-RAM-010-6-GS", "PROYECTO": "TSNL", "ESTRUCTURA": "Estación", "SEGMENTO": "S13", "ESTADO": "Coahuila de Zaragoza", "MUNICIPIO": "Ramos Arizpe", "PROPIETARIO": "Rosendo Flores 1", "M2": 482.771, "ESTATUS": "Sin avance", "COP": "NO" }, "geometry": { "type": "MultiPolygon", "coordinates": [ [ [ [ -100.952280245712032, 25.544681924550442 ], [ -100.952318993620764, 25.54450319211152 ], [ -100.952372993348831, 25.544272813788329 ], [ -100.95257160346253, 25.544364412437229 ], [ -100.952508461356629, 25.544427384963981 ], [ -100.952455266189475, 25.544488317124159 ], [ -100.952438558201948, 25.544507455195859 ], [ -100.952364290155572, 25.544579862525921 ], [ -100.95231354300671, 25.544628678259908 ], [ -100.952295921093182, 25.544657712158557 ], [ -100.952280245712032, 25.544681924550442 ] ] ] ] } },
{ "type": "Feature", "properties": { "CLAVE": "SNL-SAL-001", "PROYECTO": "TSNL", "ESTRUCTURA": "Estación", "SEGMENTO": "S13", "ESTADO": "Coahuila de Zaragoza", "MUNICIPIO": "Saltillo", "PROPIETARIO": "Zona Federal (Libramiento Norponiente Saltillo)", "M2": 1491.288, "ESTATUS": "Sin avance", "COP": "NO" }, "geometry": { "type": "MultiPolygon", "coordinates": [ [ [ [ -101.091790586283409, 25.27654324680654 ], [ -101.091994629494351, 25.274812392466377 ], [ -101.092068245094637, 25.274296123285069 ], [ -101.092096012705852, 25.274133395751573 ], [ -101.092099018524195, 25.274145528863649 ], [ -101.092156201263577, 25.274404501313263 ], [ -101.091790586283409, 25.27654324680654 ] ] ] ] } },
{ "type": "Feature", "properties": { "CLAVE": "SNL-SAL-004-70-GS", "PROYECTO": "TSNL", "ESTRUCTURA": "Estación", "SEGMENTO": "S13", "ESTADO": "Coahuila de Zaragoza", "MUNICIPIO": "Saltillo", "PROPIETARIO": "Kansas City Southern", "M2": 37354.973, "ESTATUS": "Sin avance", "COP": "NO" }, "geometry": { "type": "MultiPolygon", "coordinates": [ [ [ [ -101.015507138827118, 25.422339153946865 ], [ -101.015423536851884, 25.422343509284431 ], [ -101.015347284185211, 25.421955649784419 ], [ -101.01520129868284, 25.422106542936469 ], [ -101.015033558826971, 25.422113342687059 ], [ -101.015030833185179, 25.422073517617751 ], [ -101.01502229985185, 25.421941439284414 ], [ -101.015017321851857, 25.421800634451092 ], [ -101.015008486851855, 25.421716762617745 ], [ -101.014999412851864, 25.421580053784414 ], [ -101.014989877185187, 25.42141997378441 ], [ -101.014981736185177, 25.421287332451062 ], [ -101.014972668351859, 25.421269470284408 ], [ -101.014883759685176, 25.421273050451067 ], [ -101.014764537518502, 25.421279844117731 ], [ -101.01461537251852, 25.421287378617734 ], [ -101.014529976185159, 25.421291716451069 ], [ -101.014377492018482, 25.421299777451068 ], [ -101.014228011185139, 25.421307739617731 ], [ -101.014050057685125, 25.421316854451067 ], [ -101.01393195035179, 25.421322937117736 ], [ -101.013782660351779, 25.421327676117738 ], [ -101.013544841851783, 25.421342390451063 ], [ -101.013436503518435, 25.421288675951072 ], [ -101.013373461851771, 25.421258141451073 ], [ -101.013390334351769, 25.421231936951081 ], [ -101.013449633685084, 25.421142597117726 ], [ -101.013462729185079, 25.421114632617726 ], [ -101.013612028851782, 25.420878563951064 ], [ -101.013663096879682, 25.420810669541808 ], [ -101.013714164851777, 25.42074277511772 ], [ -101.014763774851815, 25.41916088745101 ], [ -101.014820713018494, 25.419064542117663 ], [ -101.014894633351844, 25.418950274450992 ], [ -101.014922721685167, 25.418945662950996 ], [ -101.014970691185184, 25.418936306951 ], [ -101.015012233351868, 25.418929022450993 ], [ -101.015071026351862, 25.418924879284333 ], [ -101.015076983018517, 25.418941952284339 ], [ -101.015300717815407, 25.41893074832609 ], [ -101.015300759268413, 25.418930756871831 ], [ -101.015308862396068, 25.419046474559725 ], [ -101.015312130094699, 25.419091491513978 ], [ -101.015315391976188, 25.419136410399975 ], [ -101.015318548566398, 25.419179899043169 ], [ -101.015328411055862, 25.419380444609772 ], [ -101.015331777112806, 25.419426812626146 ], [ -101.015335038086121, 25.419471735132351 ], [ -101.01533829999677, 25.419516654014679 ], [ -101.015341559788425, 25.419561564801231 ], [ -101.015344682460409, 25.419604685603225 ], [ -101.015347806324584, 25.41964781812354 ], [ -101.015350930177149, 25.419690949741035 ], [ -101.015354055011883, 25.419734080441913 ], [ -101.015357178856121, 25.419777211155999 ], [ -101.015360322894267, 25.419820633766221 ], [ -101.015366695705865, 25.419904342740143 ], [ -101.015369801942924, 25.419947250726651 ], [ -101.015372926797667, 25.419990381424956 ], [ -101.015376050676977, 25.420033513038874 ], [ -101.01537917452967, 25.420076642847373 ], [ -101.015382298430751, 25.420119775362927 ], [ -101.015385322937178, 25.420161533522638 ], [ -101.01538743554184, 25.420203805191328 ], [ -101.01538961865262, 25.420247447098003 ], [ -101.015391799778598, 25.420291089031586 ], [ -101.015393980937347, 25.420334732769792 ], [ -101.015396162143801, 25.420378379214998 ], [ -101.015398344271773, 25.420422021133884 ], [ -101.015400526402402, 25.420465663052305 ], [ -101.015402707572065, 25.420509306788968 ], [ -101.01540488878949, 25.420552953232786 ], [ -101.015407070928376, 25.420596595150126 ], [ -101.01540925306999, 25.420640237067165 ], [ -101.015411481665438, 25.420684829536473 ], [ -101.015434928507915, 25.421047269089829 ], [ -101.015439129456837, 25.421093768378306 ], [ -101.015443189409112, 25.42113873045971 ], [ -101.015447251323138, 25.421183690708286 ], [ -101.015451184600849, 25.421227251726737 ], [ -101.015453913026121, 25.421267758279722 ], [ -101.01545663590278, 25.421308170124615 ], [ -101.015487649049575, 25.422030622072448 ], [ -101.015507138827118, 25.422339153946865 ] ] ] ] } },
{ "type": "Feature", "properties": { "CLAVE": "SNL-SAL-004-70-GS", "PROYECTO": "TSNL", "ESTRUCTURA": "Estación", "SEGMENTO": "S13", "ESTADO": "Coahuila de Zaragoza", "MUNICIPIO": "Saltillo", "PROPIETARIO": "Desconocido 1", "M2": 2664.385, "ESTATUS": "Sin avance", "COP": "NO" }, "geometry": { "type": "MultiPolygon", "coordinates": [ [ [ [ -101.015300758527232, 25.41893074628733 ], [ -101.015076983018517, 25.418941952284339 ], [ -101.015071026351862, 25.418924879284333 ], [ -101.015012233351868, 25.418929022450993 ], [ -101.014970691185184, 25.418936306951 ], [ -101.014922721685167, 25.418945662950996 ], [ -101.014894633351844, 25.418950274450992 ], [ -101.014820713018494, 25.419064542117663 ], [ -101.014763774851815, 25.41916088745101 ], [ -101.013714164851777, 25.42074277511772 ], [ -101.013663096879682, 25.420810669541808 ], [ -101.013696841295342, 25.420755360734617 ], [ -101.014125974812131, 25.420044011202496 ], [ -101.01468090723472, 25.419203190244641 ], [ -101.014913992531064, 25.418850020847032 ], [ -101.014995994953665, 25.418693521868683 ], [ -101.015141624736955, 25.418425742401443 ], [ -101.01525801945256, 25.418236997458695 ], [ -101.015277066181937, 25.418235161173293 ], [ -101.015274777770728, 25.418254988838129 ], [ -101.015273967453041, 25.418269738384058 ], [ -101.015274560098817, 25.418384510790709 ], [ -101.015275014271481, 25.418427295339434 ], [ -101.015275496275905, 25.418472603323043 ], [ -101.015290686284857, 25.418739326217388 ], [ -101.015292440618609, 25.418782407668424 ], [ -101.015294388961109, 25.418824795696246 ], [ -101.015296391197509, 25.418868377969321 ], [ -101.015300758527232, 25.41893074628733 ] ] ] ] } },
{ "type": "Feature", "properties": { "CLAVE": "SNL-SAL-004-74-GS", "PROYECTO": "TSNL", "ESTRUCTURA": "Estación", "SEGMENTO": "S13", "ESTADO": "Coahuila de Zaragoza", "MUNICIPIO": "Saltillo", "PROPIETARIO": "Desconocido 2", "M2": 669.74, "ESTATUS": "Sin avance", "COP": "NO" }, "geometry": { "type": "MultiPolygon", "coordinates": [ [ [ [ -101.015423536851884, 25.422343509284431 ], [ -101.015205568851883, 25.422363292784432 ], [ -101.015196365185218, 25.422131139617765 ], [ -101.01520129868284, 25.422106542936469 ], [ -101.015347284185225, 25.421955649784419 ], [ -101.015423536851884, 25.422343509284431 ] ] ] ] } },
{ "type": "Feature", "properties": { "CLAVE": null, "PROYECTO": "TSNL", "ESTRUCTURA": "Zona de Inspección, Control y Almacenamiento", "SEGMENTO": "S13", "ESTADO": "Coahuila de Zaragoza", "MUNICIPIO": "Saltillo", "PROPIETARIO": "Desconocido 1", "M2": 11694.273, "ESTATUS": "Sin avance", "COP": "NO" }, "geometry": { "type": "MultiPolygon", "coordinates": [ [ [ [ -101.091537897091371, 25.227584057330066 ], [ -101.091526224497088, 25.22984010381062 ], [ -101.091406610380375, 25.229839321493063 ], [ -101.0914128086864, 25.228641489839351 ], [ -101.085996202774012, 25.22870297053737 ], [ -101.08599223346684, 25.22863369057222 ], [ -101.085988484496269, 25.228558632556862 ], [ -101.091410824504138, 25.228497087288851 ], [ -101.09141094313236, 25.22848916623111 ], [ -101.091419584947033, 25.228489165217951 ], [ -101.09142431973028, 25.227595992877713 ], [ -101.09142451952539, 25.227582652446674 ], [ -101.091537897091371, 25.227584057330066 ] ] ] ] } },
{ "type": "Feature", "properties": { "CLAVE": null, "PROYECTO": "TSNL", "ESTRUCTURA": "Zona de Inspección, Control y Almacenamiento", "SEGMENTO": "S13", "ESTADO": "Coahuila de Zaragoza", "MUNICIPIO": "Saltillo", "PROPIETARIO": "Desconocido 2", "M2": 146630.821, "ESTATUS": "Sin avance", "COP": "NO" }, "geometry": { "type": "MultiPolygon", "coordinates": [ [ [ [ -101.086262467119823, 25.237443365676615 ], [ -101.085004549612151, 25.237514584844369 ], [ -101.084292898085408, 25.227114100820373 ], [ -101.085550709814669, 25.227042894436551 ], [ -101.086262467119823, 25.237443365676615 ] ] ] ] } },
{ "type": "Feature", "properties": { "CLAVE": "SNL-SAL-001", "PROYECTO": "TSNL", "ESTRUCTURA": "Estación", "SEGMENTO": "S13", "ESTADO": "Coahuila de Zaragoza", "MUNICIPIO": "Saltillo", "PROPIETARIO": "José de Nigris Ambrosio", "M2": 55890.26, "ESTATUS": "Sin avance", "COP": "NO" }, "geometry": { "type": "MultiPolygon", "coordinates": [ [ [ [ -101.092156201263577, 25.274404501313263 ], [ -101.092099018524195, 25.274145528863649 ], [ -101.092058986384515, 25.273983937212527 ], [ -101.092029535182547, 25.273871504530359 ], [ -101.091989495615067, 25.273737713566469 ], [ -101.091870491745468, 25.273310789404768 ], [ -101.09177011851969, 25.272946348084318 ], [ -101.091655149981037, 25.272530661599831 ], [ -101.091569350701519, 25.272224369288594 ], [ -101.091520411267396, 25.272044175463783 ], [ -101.091462084838852, 25.271758625361876 ], [ -101.091431348723134, 25.271541939473547 ], [ -101.091409303011446, 25.271108564817052 ], [ -101.091419673388714, 25.270819982675686 ], [ -101.091401890354533, 25.270750156124038 ], [ -101.09145656667765, 25.269994039656876 ], [ -101.091520322776901, 25.269420986619608 ], [ -101.091531255495283, 25.26906433056919 ], [ -101.091560410178545, 25.267945535307685 ], [ -101.092332698474891, 25.268054157053978 ], [ -101.09198417939561, 25.270103011452122 ], [ -101.092870099981695, 25.270228222687955 ], [ -101.092156201263577, 25.274404501313263 ] ] ] ] } },
{ "type": "Feature", "properties": { "CLAVE": "SNL-ANA-070-1-GS, SNL-ANA-070-2-GS", "PROYECTO": "TSNL", "ESTRUCTURA": "Estación", "SEGMENTO": "S19", "ESTADO": "Nuevo León", "MUNICIPIO": "Anáhuac", "PROPIETARIO": "Municipio de Anáhuac", "M2": 4603.675, "ESTATUS": "Sin avance", "COP": "NO" }, "geometry": { "type": "MultiPolygon", "coordinates": [ [ [ [ -100.142490887171974, 27.229528722857218 ], [ -100.14238603112355, 27.229516922918915 ], [ -100.142193173477509, 27.229489780099964 ], [ -100.142145302753931, 27.229483273652324 ], [ -100.142034245439277, 27.229464572040595 ], [ -100.141890466009585, 27.22943439266411 ], [ -100.141667108629136, 27.22936641474536 ], [ -100.14149062747444, 27.229297720430235 ], [ -100.14140128180253, 27.229247688315279 ], [ -100.141393775512185, 27.229242946041758 ], [ -100.141470460510277, 27.229238167182412 ], [ -100.141643776791312, 27.2291524499039 ], [ -100.142106166809185, 27.228823158421758 ], [ -100.142514552487327, 27.228506329042922 ], [ -100.142636249896341, 27.228660502571962 ], [ -100.142138458175026, 27.228857868305578 ], [ -100.142490887171974, 27.229528722857218 ] ] ] ] } },
{ "type": "Feature", "properties": { "CLAVE": "SNL-ANA-070-1-GS, SNL-ANA-070-2-GS", "PROYECTO": "TSNL", "ESTRUCTURA": "Estación", "SEGMENTO": "S19", "ESTADO": "Nuevo León", "MUNICIPIO": "Anáhuac", "PROPIETARIO": "Marcos Mendoza Turrubiates", "M2": 10045.88, "ESTATUS": "Sin avance", "COP": "NO" }, "geometry": { "type": "MultiPolygon", "coordinates": [ [ [ [ -100.14092058731103, 27.23048312989669 ], [ -100.140979253154526, 27.230294247802508 ], [ -100.140996417118984, 27.230259556776794 ], [ -100.141024776036062, 27.230155855392464 ], [ -100.141034268599157, 27.230136035460379 ], [ -100.141040866724097, 27.230077764961951 ], [ -100.141068408268865, 27.229973339019725 ], [ -100.141080001941617, 27.229931294927859 ], [ -100.141087104462287, 27.22988020600949 ], [ -100.141094287247839, 27.229837782598324 ], [ -100.141109014292155, 27.229756101394933 ], [ -100.141113583607734, 27.229756668993673 ], [ -100.141119436524875, 27.229707720685262 ], [ -100.141120969532182, 27.229695733295546 ], [ -100.141115959099693, 27.229694993509746 ], [ -100.141119171913175, 27.229528540916256 ], [ -100.141128897434712, 27.229499782100092 ], [ -100.141128513172447, 27.229482100843846 ], [ -100.141128359379167, 27.229417096853833 ], [ -100.141204041075241, 27.229335532865345 ], [ -100.141242115487401, 27.229290673148903 ], [ -100.141262831926809, 27.229256543826331 ], [ -100.141305750657281, 27.229187334230726 ], [ -100.14140128180253, 27.229247688315279 ], [ -100.14149062747444, 27.229297720430235 ], [ -100.141667108629136, 27.22936641474536 ], [ -100.141890466009585, 27.22943439266411 ], [ -100.142034245439277, 27.229464572040595 ], [ -100.142145302753931, 27.229483273652324 ], [ -100.142193173477509, 27.229489780099964 ], [ -100.14238603112355, 27.229516922918915 ], [ -100.142490887171974, 27.229528722857218 ], [ -100.142434883260748, 27.229422119090941 ], [ -100.142481965858593, 27.229398420737777 ], [ -100.142574935214441, 27.229342141746159 ], [ -100.142982819517513, 27.229099554607597 ], [ -100.143015109394142, 27.22914046083983 ], [ -100.143069746756666, 27.229209677759442 ], [ -100.14092058731103, 27.23048312989669 ] ] ] ] } },
{ "type": "Feature", "properties": { "CLAVE": "SNL-ANA-070-1-GS", "PROYECTO": "TSNL", "ESTRUCTURA": "Estación", "SEGMENTO": "S19", "ESTADO": "Nuevo León", "MUNICIPIO": "Anáhuac", "PROPIETARIO": "Desconocido 1", "M2": 3804.268, "ESTATUS": "Sin avance", "COP": "NO" }, "geometry": { "type": "MultiPolygon", "coordinates": [ [ [ [ -100.142434883260748, 27.229422119090941 ], [ -100.142138458175026, 27.228857868305578 ], [ -100.142636249896341, 27.228660502571962 ], [ -100.142982819517513, 27.229099554607597 ], [ -100.142574935214441, 27.229342141746159 ], [ -100.142481965858593, 27.229398420737777 ], [ -100.142434883260748, 27.229422119090941 ] ] ] ] } },
{ "type": "Feature", "properties": { "CLAVE": "SNL-GAR-098-1-GS", "PROYECTO": "TSNL", "ESTRUCTURA": "Estación", "SEGMENTO": "S14", "ESTADO": "Nuevo León", "MUNICIPIO": "García", "PROPIETARIO": "Desconocido 2", "M2": 3690.702, "ESTATUS": "Sin avance", "COP": "NO" }, "geometry": { "type": "MultiPolygon", "coordinates": [ [ [ [ -100.591025360167038, 25.770847120893567 ], [ -100.591806837197865, 25.769389749477238 ], [ -100.591786155004797, 25.769434201462609 ], [ -100.59177498533812, 25.769465432295956 ], [ -100.591755100004789, 25.769528020462619 ], [ -100.591743124504802, 25.769580551795951 ], [ -100.59173697717145, 25.769608609462622 ], [ -100.591707497004805, 25.769819756795943 ], [ -100.591693020171462, 25.769907934795956 ], [ -100.59168150967146, 25.769993636129296 ], [ -100.591672406171455, 25.770065494795968 ], [ -100.59165654467148, 25.7701773056293 ], [ -100.591653870671479, 25.77024039879598 ], [ -100.591644771171445, 25.770298645962647 ], [ -100.591637742338136, 25.770328749629307 ], [ -100.591626074838118, 25.770370639795974 ], [ -100.591612462171469, 25.770422900462655 ], [ -100.591608068504797, 25.770459968462642 ], [ -100.59160094117145, 25.770473464629312 ], [ -100.591575431504779, 25.770525998795978 ], [ -100.591569463671462, 25.77054752979598 ], [ -100.591549076004796, 25.770576614295987 ], [ -100.59146812083813, 25.770716474295995 ], [ -100.591422652838119, 25.77079008746265 ], [ -100.591386646504816, 25.770846799129338 ], [ -100.5912188870048, 25.77079631579598 ], [ -100.591178039270872, 25.770903688602107 ], [ -100.591025360167038, 25.770847120893567 ] ] ] ] } },
{ "type": "Feature", "properties": { "CLAVE": "SNL-GAR-098-1-GS", "PROYECTO": "TSNL", "ESTRUCTURA": "Estación", "SEGMENTO": "S14", "ESTADO": "Nuevo León", "MUNICIPIO": "García", "PROPIETARIO": "Desconocido 1", "M2": 216.453, "ESTATUS": "Sin avance", "COP": "NO" }, "geometry": { "type": "MultiPolygon", "coordinates": [ [ [ [ -100.591178039270872, 25.770903688602107 ], [ -100.5912188870048, 25.77079631579598 ], [ -100.591386646504816, 25.770846799129338 ], [ -100.591318798694331, 25.770955839867774 ], [ -100.591178039270872, 25.770903688602107 ] ] ] ] } },
{ "type": "Feature", "properties": { "CLAVE": "SNL-GAR-099", "PROYECTO": "TSNL", "ESTRUCTURA": "Estación", "SEGMENTO": "S14", "ESTADO": "Nuevo León", "MUNICIPIO": "García", "PROPIETARIO": "Desconocido 3", "M2": 46.948, "ESTATUS": "Sin avance", "COP": "NO" }, "geometry": { "type": "MultiPolygon", "coordinates": [ [ [ [ -100.591732414488973, 25.769528541527396 ], [ -100.591727641535385, 25.769429319794487 ], [ -100.591800097867463, 25.769388016998892 ], [ -100.591806837197865, 25.769389749477238 ], [ -100.591732414488973, 25.769528541527396 ] ] ] ] } },
{ "type": "Feature", "properties": { "CLAVE": "SNL-GAR-100", "PROYECTO": "TSNL", "ESTRUCTURA": "Estación", "SEGMENTO": "S14", "ESTADO": "Nuevo León", "MUNICIPIO": "García", "PROPIETARIO": "Banco del Bajío", "M2": 95.989, "ESTATUS": "Sin avance", "COP": "NO" }, "geometry": { "type": "MultiPolygon", "coordinates": [ [ [ [ -100.585862505018596, 25.769281067104476 ], [ -100.585898576848038, 25.769240137110099 ], [ -100.586059851786686, 25.76929989714823 ], [ -100.586019368765804, 25.769339302712055 ], [ -100.585862505018596, 25.769281067104476 ] ] ] ] } },
{ "type": "Feature", "properties": { "CLAVE": "SNL-GAR-101", "PROYECTO": "TSNL", "ESTRUCTURA": "Estación", "SEGMENTO": "S14", "ESTADO": "Nuevo León", "MUNICIPIO": "García", "PROPIETARIO": "Oziel Tamez Guajardo", "M2": 1907.078, "ESTATUS": "Sin avance", "COP": "NO" }, "geometry": { "type": "MultiPolygon", "coordinates": [ [ [ [ -100.585550757937241, 25.770165011697024 ], [ -100.585766852283541, 25.769448821479376 ], [ -100.58579231701448, 25.769390027479155 ], [ -100.585824313998458, 25.769333911639638 ], [ -100.585862505018596, 25.769281067104476 ], [ -100.586019368765804, 25.769339302712055 ], [ -100.585981946452165, 25.769385570296304 ], [ -100.585950958407992, 25.769435586075563 ], [ -100.585926856826276, 25.769488620208545 ], [ -100.585686359949534, 25.770280718698839 ], [ -100.585660537234219, 25.770366212866179 ], [ -100.585593626424682, 25.770341403031434 ], [ -100.585550757937241, 25.770165011697024 ] ] ] ] } },
{ "type": "Feature", "properties": { "CLAVE": "SNL-GAR-101-1-GS, SNL-GAR-101-2-GS, SNL-GAR-101-3-GS, SNL-GAR-101-4-GS, SNL-GAR-101-5-GS, SNL-GAR-101-6-GS, SNL-GAR-101-7-GS", "PROYECTO": "TSNL", "ESTRUCTURA": "Estación", "SEGMENTO": "S14", "ESTADO": "Nuevo León", "MUNICIPIO": "García", "PROPIETARIO": "Desconocido 4", "M2": 15873.835, "ESTATUS": "Sin avance", "COP": "NO" }, "geometry": { "type": "MultiPolygon", "coordinates": [ [ [ [ -100.586580706125957, 25.778187308926853 ], [ -100.586573150504734, 25.778182283129553 ], [ -100.586538334838067, 25.778161602629559 ], [ -100.58650200283806, 25.778141924296225 ], [ -100.586478934004731, 25.778130003796232 ], [ -100.586455077504723, 25.778116690796221 ], [ -100.586421747004721, 25.778095242462889 ], [ -100.58639097783805, 25.778071830296231 ], [ -100.586361684171393, 25.778047422629559 ], [ -100.586337373004724, 25.778022911296215 ], [ -100.586312997671399, 25.777993070296219 ], [ -100.586264524838043, 25.777904833962886 ], [ -100.586258540338051, 25.77789596062955 ], [ -100.586244894004693, 25.77787880846288 ], [ -100.586228100171397, 25.777864118462873 ], [ -100.586218878338045, 25.777856775962871 ], [ -100.586173444838067, 25.777831307462883 ], [ -100.586152554671401, 25.777824504796207 ], [ -100.586118920838061, 25.777818990962889 ], [ -100.586095891504712, 25.777817811462882 ], [ -100.58607259283805, 25.777820807962872 ], [ -100.586061539171382, 25.777823541462883 ], [ -100.586050747504729, 25.777826682629545 ], [ -100.586038687834687, 25.77783138304499 ], [ -100.586031378214415, 25.777804971515241 ], [ -100.586019765005986, 25.777779855574053 ], [ -100.58600411233644, 25.777756606444669 ], [ -100.584337720205383, 25.775656103848551 ], [ -100.584286764776138, 25.775586065476549 ], [ -100.584242219804167, 25.775512531461409 ], [ -100.58420437600725, 25.775435981733693 ], [ -100.584173480365322, 25.775356915905608 ], [ -100.584149734508955, 25.7752758500101 ], [ -100.584133293403681, 25.775193313132849 ], [ -100.584124264338911, 25.775109843958944 ], [ -100.584122706228101, 25.775025987257177 ], [ -100.584128629224637, 25.774942290324418 ], [ -100.584141994656008, 25.774859299413649 ], [ -100.584162715276577, 25.774777556168843 ], [ -100.585527749532147, 25.770241266775678 ], [ -100.585550757937241, 25.770165011697024 ], [ -100.585593626424668, 25.770341403031434 ], [ -100.585660537234219, 25.770366212866172 ], [ -100.584323560003824, 25.774792535384645 ], [ -100.584305357218469, 25.774864128821331 ], [ -100.584293644316119, 25.774936825348291 ], [ -100.584288498883211, 25.775010143497493 ], [ -100.584289955010036, 25.775083597683054 ], [ -100.584298003064831, 25.775156701417199 ], [ -100.584312589757147, 25.775228970532346 ], [ -100.58433361849049, 25.775299926387778 ], [ -100.584360950001809, 25.775369099039722 ], [ -100.584394403283511, 25.775436030353902 ], [ -100.584433756782147, 25.775500277039853 ], [ -100.58447874986544, 25.775561413586921 ], [ -100.586580706125957, 25.778187308926853 ] ] ] ] } },
{ "type": "Feature", "properties": { "CLAVE": null, "PROYECTO": "TSNL", "ESTRUCTURA": "Zona de Inspección, Control y Almacenamiento", "SEGMENTO": "S14", "ESTADO": "Nuevo León", "MUNICIPIO": "García", "PROPIETARIO": "Desconocido 1", "M2": 1168.598, "ESTATUS": "Sin avance", "COP": "NO" }, "geometry": { "type": "MultiPolygon", "coordinates": [ [ [ [ -100.575512938283111, 25.765098620374445 ], [ -100.575589169278672, 25.764929982485597 ], [ -100.575667533671222, 25.764957394295802 ], [ -100.575776654337872, 25.764999566629125 ], [ -100.575915311504559, 25.765051979129133 ], [ -100.575940512337894, 25.76506045596248 ], [ -100.575966641004555, 25.765071490462468 ], [ -100.575991968337874, 25.765089005462467 ], [ -100.576015751504542, 25.765106716795806 ], [ -100.576038643337881, 25.765128986295807 ], [ -100.576058201504537, 25.765150728962485 ], [ -100.57607258300456, 25.765168365129142 ], [ -100.576087338337885, 25.765196007129138 ], [ -100.576102697171223, 25.765221947462468 ], [ -100.57612173350455, 25.76527547529582 ], [ -100.576130276965884, 25.765327433110713 ], [ -100.575512938283111, 25.765098620374445 ] ] ] ] } },
{ "type": "Feature", "properties": { "CLAVE": "SNL-GAR-104", "PROYECTO": "TSNL", "ESTRUCTURA": "Zona de Inspección, Control y Almacenamiento", "SEGMENTO": "S14", "ESTADO": "Nuevo León", "MUNICIPIO": "García", "PROPIETARIO": "Banco Regional S.A.", "M2": 14019.827, "ESTATUS": "Sin avance", "COP": "NO" }, "geometry": { "type": "MultiPolygon", "coordinates": [ [ [ [ -100.576423162976425, 25.765435988237286 ], [ -100.576130276965884, 25.765327433110713 ], [ -100.57612173350455, 25.76527547529582 ], [ -100.576102697171223, 25.765221947462468 ], [ -100.576087338337885, 25.765196007129138 ], [ -100.57607258300456, 25.765168365129142 ], [ -100.576058201504537, 25.765150728962485 ], [ -100.576038643337881, 25.765128986295807 ], [ -100.576015751504542, 25.765106716795806 ], [ -100.575991968337874, 25.765089005462467 ], [ -100.575966641004555, 25.765071490462468 ], [ -100.575940512337894, 25.76506045596248 ], [ -100.575915311504559, 25.765051979129133 ], [ -100.575776654337872, 25.764999566629125 ], [ -100.575667533671222, 25.764957394295802 ], [ -100.575589169278672, 25.764929982485597 ], [ -100.576113081135873, 25.763770973737625 ], [ -100.576966521682436, 25.764087295198298 ], [ -100.576423162976425, 25.765435988237286 ] ] ] ] } },
{ "type": "Feature", "properties": { "CLAVE": "SNL-GAR-099", "PROYECTO": "TSNL", "ESTRUCTURA": "Zona de Inspección, Control y Almacenamiento", "SEGMENTO": "S14", "ESTADO": "Nuevo León", "MUNICIPIO": "García", "PROPIETARIO": "José Luis Treviño González", "M2": 4597.533, "ESTATUS": "Sin avance", "COP": "NO" }, "geometry": { "type": "MultiPolygon", "coordinates": [ [ [ [ -100.585017909783545, 25.768621183260237 ], [ -100.584786692453903, 25.768535503661621 ], [ -100.585315288692897, 25.767181344532734 ], [ -100.585617960079972, 25.767293502152143 ], [ -100.585017909783545, 25.768621183260237 ] ] ] ] } },
{ "type": "Feature", "properties": { "CLAVE": "SNL-GAR-103", "PROYECTO": "TSNL", "ESTRUCTURA": "Zona de Inspección, Control y Almacenamiento", "SEGMENTO": "S14", "ESTADO": "Nuevo León", "MUNICIPIO": "García", "PROPIETARIO": "Hector Jasso Gutierrez", "M2": 71979.541, "ESTATUS": "Sin avance", "COP": "NO" }, "geometry": { "type": "MultiPolygon", "coordinates": [ [ [ [ -100.576423162976425, 25.765435988237286 ], [ -100.576966521682436, 25.764087295198298 ], [ -100.581143148526095, 25.765635232842317 ], [ -100.580604853739899, 25.766985800422571 ], [ -100.576423162976425, 25.765435988237286 ] ] ] ] } },
{ "type": "Feature", "properties": { "CLAVE": "SNL-GAR-102", "PROYECTO": "TSNL", "ESTRUCTURA": "Zona de Inspección, Control y Almacenamiento", "SEGMENTO": "S14", "ESTADO": "Nuevo León", "MUNICIPIO": "García", "PROPIETARIO": "Raul Enrique Jasso Sepulveda", "M2": 71940.04, "ESTATUS": "Sin avance", "COP": "NO" }, "geometry": { "type": "MultiPolygon", "coordinates": [ [ [ [ -100.580604875050525, 25.766985808320264 ], [ -100.581143169836494, 25.76563524073994 ], [ -100.585315288692911, 25.767181344532712 ], [ -100.584786692453903, 25.768535503661621 ], [ -100.580604875050525, 25.766985808320264 ] ] ] ] } },
{ "type": "Feature", "properties": { "CLAVE": "SNL-GAR-099", "PROYECTO": "TSNL", "ESTRUCTURA": "Estación", "SEGMENTO": "S14", "ESTADO": "Nuevo León", "MUNICIPIO": "García", "PROPIETARIO": "José Luis Treviño González", "M2": 42444.698, "ESTATUS": "Sin avance", "COP": "NO" }, "geometry": { "type": "MultiPolygon", "coordinates": [ [ [ [ -100.591025543435862, 25.770846779121154 ], [ -100.588164755849959, 25.769786216157748 ], [ -100.58850167587353, 25.76928567599585 ], [ -100.588037952497785, 25.769086506665722 ], [ -100.587796404540953, 25.768999130850968 ], [ -100.587771415123783, 25.768991779365624 ], [ -100.587745575127073, 25.768987466952645 ], [ -100.587719333254896, 25.768986268495937 ], [ -100.587693145189775, 25.768988204806437 ], [ -100.587560363969416, 25.769012161965303 ], [ -100.586663118926111, 25.769131310016121 ], [ -100.586465594286139, 25.769157624000027 ], [ -100.586200276236639, 25.769059311637267 ], [ -100.586261938627089, 25.769044000772062 ], [ -100.586324919049417, 25.769034014374004 ], [ -100.586334522357859, 25.769012765635726 ], [ -100.585055186282986, 25.76853870554352 ], [ -100.585108050418157, 25.768421738536592 ], [ -100.586376428445007, 25.768891738168744 ], [ -100.586423486401969, 25.768906733041099 ], [ -100.586471963932055, 25.768917393882681 ], [ -100.586521375509037, 25.768923613920148 ], [ -100.586571226251408, 25.768925330856995 ], [ -100.587541467278001, 25.768798802289169 ], [ -100.587604301587959, 25.768793384806511 ], [ -100.587667416531573, 25.768793992519676 ], [ -100.587730109400454, 25.768800618662063 ], [ -100.58779168218544, 25.768813189459163 ], [ -100.58785144934771, 25.768831564949892 ], [ -100.588166921635292, 25.768945695885122 ], [ -100.588174311945295, 25.76892894734792 ], [ -100.588630675656461, 25.769094028147318 ], [ -100.588646462369169, 25.769070574652613 ], [ -100.58986600450325, 25.76951170893172 ], [ -100.591727641508356, 25.769429319232405 ], [ -100.591732414488973, 25.769528541527396 ], [ -100.591025543435862, 25.770846779121154 ] ] ] ] } },
{ "type": "Feature", "properties": { "CLAVE": "SNL-GES-005-1-GS", "PROYECTO": "TSNL", "ESTRUCTURA": "Zona de Inspección, Control y Almacenamiento", "SEGMENTO": "S15B", "ESTADO": "Nuevo León", "MUNICIPIO": "General Escobedo", "PROPIETARIO": "Maria Mirtala Canales Garza (Fracción 4)", "M2": 16363.636, "ESTATUS": "Sin avance", "COP": "NO" }, "geometry": { "type": "MultiPolygon", "coordinates": [ [ [ [ -100.304559559399323, 25.78650939263397 ], [ -100.304264250066268, 25.786477908465951 ], [ -100.305151273211621, 25.780764608194126 ], [ -100.305406094289339, 25.78079372469902 ], [ -100.305318920909684, 25.781337025844074 ], [ -100.304650915359005, 25.785614762608478 ], [ -100.304595690068439, 25.786104681702955 ], [ -100.304559559399323, 25.78650939263397 ] ] ] ] } },
{ "type": "Feature", "properties": { "CLAVE": "SNL-GES-D001, SNL-GES--D002, SNL-GES-003, SNL-GES-004", "PROYECTO": "TSNL", "ESTRUCTURA": "Estación", "SEGMENTO": "S15B", "ESTADO": "Nuevo León", "MUNICIPIO": "General Escobedo", "PROPIETARIO": "Penta Las Torres S.A.P.I. de C.V.", "M2": 18297.236, "ESTATUS": "Sin avance", "COP": "NO" }, "geometry": { "type": "MultiPolygon", "coordinates": [ [ [ [ -100.305659166076765, 25.780131860543662 ], [ -100.305516112864936, 25.780108036551038 ], [ -100.304702382273945, 25.780003484808265 ], [ -100.304719207182202, 25.779895876442616 ], [ -100.304848703342032, 25.779067642229904 ], [ -100.305012594620734, 25.778021902395185 ], [ -100.305861870922172, 25.778714608143158 ], [ -100.305872639903555, 25.778748370942065 ], [ -100.305872259348718, 25.778809669630089 ], [ -100.305823287548648, 25.779059634961556 ], [ -100.305717876650746, 25.779729329628918 ], [ -100.305666619699466, 25.780057121587753 ], [ -100.305665782471067, 25.780065516646982 ], [ -100.305659166076765, 25.780131860543662 ] ] ] ] } },
{ "type": "Feature", "properties": { "CLAVE": "SNL-GES-004", "PROYECTO": "TSNL", "ESTRUCTURA": "Estación", "SEGMENTO": "S15B", "ESTADO": "Nuevo León", "MUNICIPIO": "General Escobedo", "PROPIETARIO": "Humberto Cantu Guevara", "M2": 17944.302, "ESTATUS": "Sin avance", "COP": "NO" }, "geometry": { "type": "MultiPolygon", "coordinates": [ [ [ [ -100.304702360813891, 25.780003622061891 ], [ -100.304015269554185, 25.779914818472804 ], [ -100.304020648560538, 25.779870858014313 ], [ -100.304026028399292, 25.779826890725886 ], [ -100.304031409212214, 25.779782921622719 ], [ -100.304036790021911, 25.779738952519232 ], [ -100.30404217079878, 25.779694980707042 ], [ -100.304047550624759, 25.779651013417393 ], [ -100.304052932431787, 25.779607045206888 ], [ -100.304058288498211, 25.779563276760324 ], [ -100.304063839639895, 25.779519109303255 ], [ -100.304069418480196, 25.77947473935544 ], [ -100.304074995332783, 25.779430370327898 ], [ -100.304080573179107, 25.779386001291158 ], [ -100.304086149037687, 25.779341633174678 ], [ -100.304091726867384, 25.779297263234437 ], [ -100.304097055188606, 25.779254880935259 ], [ -100.304105166532068, 25.779203828704219 ], [ -100.304110993958503, 25.77915747115258 ], [ -100.304114437392087, 25.779130080220853 ], [ -100.304116571783368, 25.779113102113815 ], [ -100.304122148607803, 25.779068733083655 ], [ -100.30412772543869, 25.779024364955966 ], [ -100.304133304240622, 25.77897999500453 ], [ -100.304138880057778, 25.778935625982363 ], [ -100.304144456888352, 25.778891258756534 ], [ -100.304150035670247, 25.778846887901338 ], [ -100.304155612474361, 25.778802518869274 ], [ -100.304161189265201, 25.778758148934156 ], [ -100.304166767079394, 25.778713781697991 ], [ -100.304172344860547, 25.778669411753278 ], [ -100.304177922648208, 25.778625042710981 ], [ -100.304183500442349, 25.778580674571167 ], [ -100.304189078203507, 25.778536303722788 ], [ -100.304194654983903, 25.778491934688422 ], [ -100.304200232758035, 25.778447565644967 ], [ -100.3042058085543, 25.778403198424538 ], [ -100.304211386301944, 25.778358827574742 ], [ -100.304216994355542, 25.778314217587575 ], [ -100.304222327045352, 25.778270145582905 ], [ -100.304227622386705, 25.778226395727884 ], [ -100.304232915750518, 25.778182647695935 ], [ -100.304237976807372, 25.778140818533259 ], [ -100.304265714042955, 25.777959515085783 ], [ -100.304271412719118, 25.77791241707877 ], [ -100.304296130445138, 25.777658648221244 ], [ -100.304301251854184, 25.777616322839673 ], [ -100.304306546151707, 25.777572572989097 ], [ -100.30431183947853, 25.777528825855409 ], [ -100.304312204237775, 25.777525811635435 ], [ -100.304467648380168, 25.777600775776481 ], [ -100.304581813331026, 25.777675368228497 ], [ -100.304739429753326, 25.777806382240243 ], [ -100.305012594620734, 25.778021902395185 ], [ -100.304848703342032, 25.779067642229904 ], [ -100.304824917729619, 25.779219771486371 ], [ -100.304719207182202, 25.779895876442616 ], [ -100.304702360813891, 25.780003622061891 ] ] ] ] } },
{ "type": "Feature", "properties": { "CLAVE": "SNL-GES-005-1-GS", "PROYECTO": "TSNL", "ESTRUCTURA": "Estación", "SEGMENTO": "S15B", "ESTADO": "Nuevo León", "MUNICIPIO": "General Escobedo", "PROPIETARIO": "Maria Mirtala Canales Garza (Fracción 4)", "M2": 1995.282, "ESTATUS": "Sin avance", "COP": "NO" }, "geometry": { "type": "MultiPolygon", "coordinates": [ [ [ [ -100.305406094289339, 25.78079372469902 ], [ -100.305151273211621, 25.780764608194126 ], [ -100.30525834665049, 25.780074918111602 ], [ -100.305516112864936, 25.780108036551038 ], [ -100.305406094289339, 25.78079372469902 ] ] ] ] } },
{ "type": "Feature", "properties": { "CLAVE": "SNL-GES-005, SNL-GES-005-1-GS", "PROYECTO": "TSNL", "ESTRUCTURA": "Estación", "SEGMENTO": "S15B", "ESTADO": "Nuevo León", "MUNICIPIO": "General Escobedo", "PROPIETARIO": "Maria Mirtala Canales Garza (Fracción 1)", "M2": 5402.327, "ESTATUS": "Sin avance", "COP": "NO" }, "geometry": { "type": "MultiPolygon", "coordinates": [ [ [ [ -100.304596066020039, 25.780701167203119 ], [ -100.304477399127478, 25.78068760739383 ], [ -100.30392467855016, 25.78062444788462 ], [ -100.303925831312085, 25.780615030197385 ], [ -100.303931051952063, 25.780572367178689 ], [ -100.303955735069934, 25.780401095075113 ], [ -100.303956082484717, 25.780398485383998 ], [ -100.303961464306951, 25.780354513567488 ], [ -100.303966843183943, 25.780310546291343 ], [ -100.303972224052046, 25.780266578997068 ], [ -100.303977604906962, 25.780222610799708 ], [ -100.303982986736045, 25.780178640787494 ], [ -100.303988367554979, 25.780134669881235 ], [ -100.303993747413031, 25.78009070259467 ], [ -100.303999127258024, 25.780046734405026 ], [ -100.304004508096838, 25.780002766206035 ], [ -100.304009888922621, 25.779958797104058 ], [ -100.304015269554085, 25.779914818472786 ], [ -100.304702360813891, 25.780003622061891 ], [ -100.304702382273945, 25.780003484808265 ], [ -100.304705510908789, 25.780003886798383 ], [ -100.304596066020039, 25.780701167203119 ] ] ] ] } },
{ "type": "Feature", "properties": { "CLAVE": "SNL-GES-005-1-GS", "PROYECTO": "TSNL", "ESTRUCTURA": "Estación", "SEGMENTO": "S15B", "ESTADO": "Nuevo León", "MUNICIPIO": "General Escobedo", "PROPIETARIO": "Maria Mirtala Canales Garza (Fracción 2)", "M2": 2180.46, "ESTATUS": "Sin avance", "COP": "NO" }, "geometry": { "type": "MultiPolygon", "coordinates": [ [ [ [ -100.304873682745594, 25.780732889473793 ], [ -100.304596066025496, 25.780701167203741 ], [ -100.304705510914758, 25.780003886799154 ], [ -100.304981946793461, 25.780039405044459 ], [ -100.304873682745594, 25.780732889473793 ] ] ] ] } },
{ "type": "Feature", "properties": { "CLAVE": "SNL-GES-005-1-GS, SNL-GES-D002", "PROYECTO": "TSNL", "ESTRUCTURA": "Estación", "SEGMENTO": "S15B", "ESTADO": "Nuevo León", "MUNICIPIO": "General Escobedo", "PROPIETARIO": "Maria Mirtala Canales Garza (Fracción 3)", "M2": 2168.095, "ESTATUS": "Sin avance", "COP": "NO" }, "geometry": { "type": "MultiPolygon", "coordinates": [ [ [ [ -100.305151273211621, 25.780764608194126 ], [ -100.304873682751577, 25.780732889474468 ], [ -100.30498194679943, 25.78003940504523 ], [ -100.30525834665049, 25.780074918111602 ], [ -100.305151273211621, 25.780764608194126 ] ] ] ] } },
{ "type": "Feature", "properties": { "CLAVE": null, "PROYECTO": "TSNL", "ESTRUCTURA": "Zona de Inspección, Control y Almacenamiento", "SEGMENTO": "S15B", "ESTADO": "Nuevo León", "MUNICIPIO": "General Escobedo", "PROPIETARIO": "Maria Mirtala Canales Garza (Fracción 5)", "M2": 337.245, "ESTATUS": "Sin avance", "COP": "NO" }, "geometry": { "type": "MultiPolygon", "coordinates": [ [ [ [ -100.303057132759989, 25.787469843276778 ], [ -100.303038910772926, 25.78744785010846 ], [ -100.303044413453222, 25.787403937756221 ], [ -100.303049918124543, 25.78736002538573 ], [ -100.303055420798259, 25.787316113032819 ], [ -100.303060925472835, 25.787272201564566 ], [ -100.303066429127199, 25.787228288299314 ], [ -100.303071933785347, 25.78718437592757 ], [ -100.30307743744298, 25.787140463564452 ], [ -100.30308294209452, 25.787096551192104 ], [ -100.303088445755378, 25.787052639731215 ], [ -100.303093950390448, 25.787008726455497 ], [ -100.30309945403485, 25.78696481409121 ], [ -100.303104956678851, 25.786920901735531 ], [ -100.303110461323655, 25.786876990264421 ], [ -100.303115964948361, 25.786833076996363 ], [ -100.303121469566875, 25.786789163719082 ], [ -100.303126973204598, 25.786745252256015 ], [ -100.303132477826381, 25.786701339880928 ], [ -100.303137980460434, 25.786657428426107 ], [ -100.303143486062851, 25.786613515138647 ], [ -100.303148988680348, 25.786569602780528 ], [ -100.303154492291782, 25.786525690413065 ], [ -100.303159996897023, 25.786481778036443 ], [ -100.303165499514478, 25.786437866580027 ], [ -100.303171005100424, 25.786393953291029 ], [ -100.303176508698641, 25.786350040922411 ], [ -100.303181947257571, 25.786306656410151 ], [ -100.303187801771472, 25.786263007242461 ], [ -100.303193725345821, 25.786218833793082 ], [ -100.303199648926338, 25.786174661246136 ], [ -100.303205573451109, 25.786130484176045 ], [ -100.303211498021597, 25.786086311619542 ], [ -100.303217422578584, 25.786042138159846 ], [ -100.30322334713189, 25.785997964699902 ], [ -100.303229272639271, 25.785953787619498 ], [ -100.303235197185344, 25.7859096141589 ], [ -100.303241121737685, 25.785865441600603 ], [ -100.303247046237004, 25.785821264528213 ], [ -100.303252970782054, 25.785777091969308 ], [ -100.303258895313576, 25.7857329185073 ], [ -100.303264819802038, 25.785688741434004 ], [ -100.303270743319274, 25.785644567077458 ], [ -100.303271011200977, 25.785642433912191 ], [ -100.303302050041324, 25.785375693698811 ], [ -100.30330783159728, 25.785332584188769 ], [ -100.303308426768368, 25.785327275417703 ], [ -100.303312409382585, 25.785283081431249 ], [ -100.303353877919065, 25.784953719722388 ], [ -100.303360687635319, 25.784913531701463 ], [ -100.303361507726891, 25.784907907619999 ], [ -100.303366963173474, 25.784863341092809 ], [ -100.30339007587672, 25.784684266323929 ], [ -100.303395633445859, 25.784638859975431 ], [ -100.303401136342103, 25.784593892148322 ], [ -100.303406640222306, 25.784548923409101 ], [ -100.303412062517523, 25.784504610881736 ], [ -100.303469164177571, 25.78407615756138 ], [ -100.303650894921105, 25.782744750319452 ], [ -100.303556740254848, 25.783489566608825 ], [ -100.303433863850103, 25.784434898340329 ], [ -100.303328032610509, 25.785199202307833 ], [ -100.303109817982659, 25.786897905444782 ], [ -100.303094889545193, 25.787084642721485 ], [ -100.303077470547095, 25.787262354269107 ], [ -100.303057132759989, 25.787469843276778 ] ] ] ] } },
{ "type": "Feature", "properties": { "CLAVE": "SNL-GES-005-1-GS", "PROYECTO": "TSNL", "ESTRUCTURA": "Zona de Inspección, Control y Almacenamiento", "SEGMENTO": "S15B", "ESTADO": "Nuevo León", "MUNICIPIO": "General Escobedo", "PROPIETARIO": "Maria Mirtala Canales Garza (Fracción 2)", "M2": 18093.445, "ESTATUS": "Sin avance", "COP": "NO" }, "geometry": { "type": "MultiPolygon", "coordinates": [ [ [ [ -100.303981457119505, 25.786447767614611 ], [ -100.303745174527876, 25.786422583529408 ], [ -100.303698769101658, 25.786417637379085 ], [ -100.304596066020039, 25.780701167203119 ], [ -100.304873682745594, 25.780732889473793 ], [ -100.303981457119505, 25.786447767614611 ] ] ] ] } },
{ "type": "Feature", "properties": { "CLAVE": "SNL-GES-005-1-GS, SNL-GES-005", "PROYECTO": "TSNL", "ESTRUCTURA": "Zona de Inspección, Control y Almacenamiento", "SEGMENTO": "S15B", "ESTADO": "Nuevo León", "MUNICIPIO": "General Escobedo", "PROPIETARIO": "Maria Mirtala Canales Garza (Fracción 1)", "M2": 41023.458, "ESTATUS": "Sin avance", "COP": "NO" }, "geometry": { "type": "MultiPolygon", "coordinates": [ [ [ [ -100.30392467855016, 25.78062444788462 ], [ -100.304596066020039, 25.780701167203119 ], [ -100.303698769101658, 25.786417637379085 ], [ -100.303387363694242, 25.786384445650263 ], [ -100.303303849377244, 25.787027329138223 ], [ -100.303248629419357, 25.787433148749216 ], [ -100.303239002781851, 25.787536870584049 ], [ -100.303162784116722, 25.787595524439165 ], [ -100.303143380058458, 25.787573711012111 ], [ -100.303096903021881, 25.787518863573084 ], [ -100.303057132759989, 25.787469843276778 ], [ -100.303077470547095, 25.787262354269107 ], [ -100.303094889545193, 25.787084642721485 ], [ -100.303109817982659, 25.786897905444782 ], [ -100.303328032610509, 25.785199202307833 ], [ -100.303433863850103, 25.784434898340329 ], [ -100.303556740254848, 25.783489566608825 ], [ -100.303650894921105, 25.782744750319445 ], [ -100.303681507836487, 25.782520469586736 ], [ -100.303686943398787, 25.782475399559701 ], [ -100.303692268315231, 25.782431225124352 ], [ -100.30369759623963, 25.782387052467286 ], [ -100.303702922136992, 25.7823428771196 ], [ -100.303707797376376, 25.782302449999186 ], [ -100.303732734100763, 25.782166368948193 ], [ -100.303738517419589, 25.782118420511402 ], [ -100.303744086173822, 25.782072233691686 ], [ -100.303758384276861, 25.781909557421262 ], [ -100.303763789765924, 25.781867466076175 ], [ -100.30376950858313, 25.781822930570563 ], [ -100.303775229391093, 25.781778395046679 ], [ -100.303780949198469, 25.781733859531506 ], [ -100.303786667995297, 25.781689323122094 ], [ -100.303792389750413, 25.781644783977214 ], [ -100.303798108559974, 25.781600249372715 ], [ -100.303803828353281, 25.781555713856296 ], [ -100.303809547136154, 25.781511177445473 ], [ -100.303815266912579, 25.781466641025574 ], [ -100.303820987692504, 25.781422105499157 ], [ -100.303826707461994, 25.781377569078479 ], [ -100.303832274606279, 25.781334214072615 ], [ -100.303853258757826, 25.781192564803199 ], [ -100.303859137793381, 25.781146789124922 ], [ -100.303864858537239, 25.781102252693209 ], [ -100.303870578250923, 25.781057713561886 ], [ -100.303876297013304, 25.781013178952957 ], [ -100.303882015762341, 25.780968643441099 ], [ -100.303887736502091, 25.78092410791086 ], [ -100.303893490235623, 25.780879306713764 ], [ -100.303898927891396, 25.780834874769315 ], [ -100.303904308739931, 25.780790902062044 ], [ -100.303909688657228, 25.780746935682885 ], [ -100.303915068551561, 25.780702967497881 ], [ -100.303920449429953, 25.780658998400806 ], [ -100.30392467855016, 25.78062444788462 ] ] ] ] } },
{ "type": "Feature", "properties": { "CLAVE": "SNL-GES-005-1-GS", "PROYECTO": "TSNL", "ESTRUCTURA": "Zona de Inspección, Control y Almacenamiento", "SEGMENTO": "S15B", "ESTADO": "Nuevo León", "MUNICIPIO": "General Escobedo", "PROPIETARIO": "Maria Mirtala Canales Garza (Fracción 3)", "M2": 18089.278, "ESTATUS": "Sin avance", "COP": "NO" }, "geometry": { "type": "MultiPolygon", "coordinates": [ [ [ [ -100.304264250066268, 25.786477908465951 ], [ -100.303981457125502, 25.78644776761525 ], [ -100.304873682751577, 25.780732889474468 ], [ -100.305151273211621, 25.780764608194126 ], [ -100.304264250066268, 25.786477908465951 ] ] ] ] } },
{ "type": "Feature", "properties": { "CLAVE": null, "PROYECTO": "TSNL", "ESTRUCTURA": "Estación", "SEGMENTO": "S18", "ESTADO": "Nuevo León", "MUNICIPIO": "Lampazos de Naranjo", "PROPIETARIO": "Desconocido", "M2": 1194.758, "ESTATUS": "Sin avance", "COP": "NO" }, "geometry": { "type": "MultiPolygon", "coordinates": [ [ [ [ -100.515891923919682, 27.03331895165638 ], [ -100.516448244427409, 27.03237404690611 ], [ -100.516572070211126, 27.03217016739049 ], [ -100.516587665934935, 27.032142072308247 ], [ -100.516665599589672, 27.032180390598846 ], [ -100.515955582162633, 27.033350152910593 ], [ -100.515891923919682, 27.03331895165638 ] ] ] ] } },
{ "type": "Feature", "properties": { "CLAVE": "SNL-LAM-009", "PROYECTO": "TSNL", "ESTRUCTURA": "Estación", "SEGMENTO": "S18", "ESTADO": "Nuevo León", "MUNICIPIO": "Lampazos de Naranjo", "PROPIETARIO": "Rosauro Federico Rodriguez Allen y Cops", "M2": 8028.532, "ESTATUS": "Sin avance", "COP": "NO" }, "geometry": { "type": "MultiPolygon", "coordinates": [ [ [ [ -100.515719390310764, 27.032537194268404 ], [ -100.515721234777786, 27.032212253396111 ], [ -100.515725235193131, 27.032017077709924 ], [ -100.515727443216775, 27.031972306836476 ], [ -100.515748040399558, 27.031813255936161 ], [ -100.515752618693199, 27.03177790506043 ], [ -100.515757944471119, 27.031734111838688 ], [ -100.516274772671679, 27.031988228752539 ], [ -100.516587665934935, 27.032142072308247 ], [ -100.516572070211126, 27.03217016739049 ], [ -100.516448244427409, 27.03237404690611 ], [ -100.515891923919682, 27.03331895165638 ], [ -100.515782777859314, 27.032898730849695 ], [ -100.515736412867142, 27.03269028046698 ], [ -100.515721653346446, 27.032599799755886 ], [ -100.515719390310764, 27.032537194268404 ] ] ] ] } },
{ "type": "Feature", "properties": { "CLAVE": "SNL-MON-286, SNL-MON-287", "PROYECTO": "TSNL", "ESTRUCTURA": "Estación", "SEGMENTO": "S15A1", "ESTADO": "Nuevo León", "MUNICIPIO": "Monterrey", "PROPIETARIO": "Desconocido 2", "M2": 32703.419, "ESTATUS": "Sin avance", "COP": "NO" }, "geometry": { "type": "MultiPolygon", "coordinates": [ [ [ [ -100.32935746870514, 25.692988572801696 ], [ -100.329124866961081, 25.694141426936753 ], [ -100.328039286775748, 25.694019268726407 ], [ -100.328203538583026, 25.692807618882725 ], [ -100.328333478912981, 25.69177742254703 ], [ -100.328431978262046, 25.690982031816919 ], [ -100.328435036862089, 25.690970555247855 ], [ -100.328505960505879, 25.690428089522925 ], [ -100.328908292887263, 25.690470325666855 ], [ -100.328832130239505, 25.691041115821584 ], [ -100.328984639205785, 25.691057573925349 ], [ -100.328914388607416, 25.691660445387559 ], [ -100.329137228745111, 25.691684468055968 ], [ -100.329137351368786, 25.691683536016207 ], [ -100.329184792576996, 25.691688498468434 ], [ -100.32899391933185, 25.692919784350014 ], [ -100.329365838125952, 25.692962219604677 ], [ -100.32935746870514, 25.692988572801696 ] ] ] ] } },
{ "type": "Feature", "properties": { "CLAVE": "SNL-MON-285, SNL-MON-286", "PROYECTO": "TSNL", "ESTRUCTURA": "Estación", "SEGMENTO": "S15A1", "ESTADO": "Nuevo León", "MUNICIPIO": "Monterrey", "PROPIETARIO": "Desconcoido 3", "M2": 4735.48, "ESTATUS": "Sin avance", "COP": "NO" }, "geometry": { "type": "MultiPolygon", "coordinates": [ [ [ [ -100.329799027727148, 25.689964920313326 ], [ -100.329669672727064, 25.690805127004332 ], [ -100.329670688092875, 25.690787013280403 ], [ -100.329668611259848, 25.690768974091824 ], [ -100.329663491824718, 25.690751440219433 ], [ -100.329655452042232, 25.690734830376808 ], [ -100.329644683905627, 25.690719541211269 ], [ -100.329540264266129, 25.690593873992306 ], [ -100.3295467231288, 25.690543874018164 ], [ -100.329351026019623, 25.690524911698308 ], [ -100.329321754361231, 25.690513817266407 ], [ -100.3289085480138, 25.690468444529561 ], [ -100.328908295605416, 25.690470305624881 ], [ -100.328771659362857, 25.690455968824903 ], [ -100.328808655697912, 25.690050625864028 ], [ -100.32961278662863, 25.690134999020298 ], [ -100.329799027727148, 25.689964920313326 ] ] ] ] } },
{ "type": "Feature", "properties": { "CLAVE": "SNL-MON-288", "PROYECTO": "TSNL", "ESTRUCTURA": "Estación", "SEGMENTO": "S15A1", "ESTADO": "Nuevo León", "MUNICIPIO": "Monterrey", "PROPIETARIO": "Desconocido 1", "M2": 3940.76, "ESTATUS": "Sin avance", "COP": "NO" }, "geometry": { "type": "MultiPolygon", "coordinates": [ [ [ [ -100.328431978262046, 25.690982031816919 ], [ -100.328333478912981, 25.69177742254703 ], [ -100.327892810186043, 25.691732220192016 ], [ -100.327994754863056, 25.690933702536295 ], [ -100.328431978262046, 25.690982031816919 ] ] ] ] } },
{ "type": "Feature", "properties": { "CLAVE": "SNL-SLV-001", "PROYECTO": "TSN", "ESTRUCTURA": "Estación", "SEGMENTO": "15-16", "ESTADO": "Nuevo León", "MUNICIPIO": "Salinas Victoria", "PROPIETARIO": "José Hermilo Elizondo", "M2": 12311.391, "ESTATUS": "NO LIBERADO", "COP": "NO" }, "geometry": { "type": "MultiPolygon", "coordinates": [ [ [ [ -100.280084871330473, 25.970961317331469 ], [ -100.279704133051069, 25.969775622266077 ], [ -100.279691570955833, 25.969745105254166 ], [ -100.279673651380278, 25.969716858920169 ], [ -100.279650857852843, 25.969691645436512 ], [ -100.279623805414928, 25.96967014513967 ], [ -100.279593224025021, 25.969652938172732 ], [ -100.27955993886232, 25.969640488831622 ], [ -100.279524848060987, 25.969633133037075 ], [ -100.279488898476117, 25.96963106927064 ], [ -100.279453060135054, 25.969634353219099 ], [ -100.27979202986873, 25.969416904506961 ], [ -100.279962667040934, 25.969936075097159 ], [ -100.280495425471742, 25.969337828099288 ], [ -100.280528898874067, 25.96944039381362 ], [ -100.280590283007513, 25.969628477687149 ], [ -100.280900268997129, 25.970578285199391 ], [ -100.280856539277181, 25.970599551534043 ], [ -100.280844947669053, 25.970605056776801 ], [ -100.280084871330473, 25.970961317331469 ] ] ] ] } },
{ "type": "Feature", "properties": { "CLAVE": "SNL-SLV-PP003", "PROYECTO": "TSN", "ESTRUCTURA": "Estación", "SEGMENTO": "15-16", "ESTADO": "Nuevo León", "MUNICIPIO": "Salinas Victoria", "PROPIETARIO": "Prolongación Madero", "M2": 283.667, "ESTATUS": "NO LIBERADO", "COP": "NO" }, "geometry": { "type": "MultiPolygon", "coordinates": [ [ [ [ -100.279348876899405, 25.969650955061805 ], [ -100.279771404852198, 25.969354151700418 ], [ -100.27979202986873, 25.969416904506961 ], [ -100.279453060135054, 25.969634353219099 ], [ -100.279421580758878, 25.969641848039043 ], [ -100.279391675659099, 25.969653472653821 ], [ -100.279364003831347, 25.969668970901107 ], [ -100.279348876899405, 25.969650955061805 ] ] ] ] } },
{ "type": "Feature", "properties": { "CLAVE": "SNL-SLV-002", "PROYECTO": "TSN", "ESTRUCTURA": "Estación", "SEGMENTO": "15-16", "ESTADO": "Nuevo León", "MUNICIPIO": "Salinas Victoria", "PROPIETARIO": "Vargas del Toro 1", "M2": 15179.641, "ESTATUS": "NO LIBERADO", "COP": "NO" }, "geometry": { "type": "MultiPolygon", "coordinates": [ [ [ [ -100.280606480241389, 25.972585668151488 ], [ -100.280084871330473, 25.970961317331469 ], [ -100.280844947669053, 25.970605056776801 ], [ -100.280904333134743, 25.970838762886853 ], [ -100.280927553362972, 25.970930192993656 ], [ -100.280931278818969, 25.970941427582972 ], [ -100.281024456730179, 25.971222413790063 ], [ -100.281071105283374, 25.971344790207215 ], [ -100.281378785849739, 25.972044455438965 ], [ -100.281378802330281, 25.97204449291544 ], [ -100.281378798871984, 25.972044495338508 ], [ -100.281368787170251, 25.972051510059337 ], [ -100.280606480241389, 25.972585668151488 ] ] ] ] } },
{ "type": "Feature", "properties": { "CLAVE": "SNL-SLV-002", "PROYECTO": "TSN", "ESTRUCTURA": "Estación", "SEGMENTO": "15-16", "ESTADO": "Nuevo León", "MUNICIPIO": "Salinas Victoria", "PROPIETARIO": "Uso Común 1", "M2": 984.124, "ESTATUS": "NO LIBERADO", "COP": "NO" }, "geometry": { "type": "MultiPolygon", "coordinates": [ [ [ [ -100.281024456730179, 25.971222413790063 ], [ -100.280931278818969, 25.970941427582972 ], [ -100.280927553362972, 25.970930192993656 ], [ -100.280904333134743, 25.970838762886853 ], [ -100.280844947669053, 25.970605056776801 ], [ -100.280856539277181, 25.970599551534043 ], [ -100.280900270121847, 25.970578284652429 ], [ -100.280900487622532, 25.970578951074764 ], [ -100.281378785849739, 25.972044455438958 ], [ -100.281071105283374, 25.971344790207215 ], [ -100.281024456730179, 25.971222413790063 ] ] ] ] } },
{ "type": "Feature", "properties": { "CLAVE": "SNL-SLV-003", "PROYECTO": "TSN", "ESTRUCTURA": "Estación", "SEGMENTO": "15-16", "ESTADO": "Nuevo León", "MUNICIPIO": "Salinas Victoria", "PROPIETARIO": "Vargas del Toro 2", "M2": 26656.03, "ESTATUS": "NO LIBERADO", "COP": "NO" }, "geometry": { "type": "MultiPolygon", "coordinates": [ [ [ [ -100.280726019738267, 25.972957920959942 ], [ -100.280606480241389, 25.972585668151488 ], [ -100.281368787170251, 25.972051510059337 ], [ -100.281378802330281, 25.97204449291544 ], [ -100.281436198354854, 25.972208462185563 ], [ -100.282195265220892, 25.974376903546698 ], [ -100.282230194492143, 25.974476684783919 ], [ -100.282099492011042, 25.974510717576131 ], [ -100.28196075751714, 25.974546841624214 ], [ -100.281183836607198, 25.974749136457771 ], [ -100.281188571185567, 25.974735394196713 ], [ -100.281191279167487, 25.974721210660825 ], [ -100.281191914146078, 25.974706828918347 ], [ -100.281190465240257, 25.974692495434198 ], [ -100.280766826490549, 25.973387715739378 ], [ -100.280726019738267, 25.972957920959942 ] ] ] ] } },
{ "type": "Feature", "properties": { "CLAVE": "SNL-SLV-PP005", "PROYECTO": "TSN", "ESTRUCTURA": "Estación", "SEGMENTO": "15-16", "ESTADO": "Nuevo León", "MUNICIPIO": "Salinas Victoria", "PROPIETARIO": "Desconocido 1", "M2": 4919.563, "ESTATUS": "NO LIBERADO", "COP": "NO" }, "geometry": { "type": "MultiPolygon", "coordinates": [ [ [ [ -100.281378739479678, 25.972044313363217 ], [ -100.280900487622532, 25.970578951074764 ], [ -100.280495426079739, 25.969337827416556 ], [ -100.280609008356436, 25.969210282191462 ], [ -100.281603431316896, 25.972264743203031 ], [ -100.281378801676325, 25.972044491047232 ], [ -100.281378801381663, 25.972044490758311 ], [ -100.281378785849739, 25.972044455438976 ], [ -100.281378739479678, 25.972044313363217 ] ] ] ] } },
{ "type": "Feature", "properties": { "CLAVE": "SNL-SLV-PP006", "PROYECTO": "TSN", "ESTRUCTURA": "Estación", "SEGMENTO": "15-16", "ESTADO": "Nuevo León", "MUNICIPIO": "Salinas Victoria", "PROPIETARIO": "Uso Común 2", "M2": 2609.446, "ESTATUS": "NO LIBERADO", "COP": "NO" }, "geometry": { "type": "MultiPolygon", "coordinates": [ [ [ [ -100.282230194492143, 25.974476684783919 ], [ -100.282195265220892, 25.974376903546698 ], [ -100.281436198354854, 25.972208462185563 ], [ -100.281378802330281, 25.97204449291544 ], [ -100.281378801381663, 25.972044490758311 ], [ -100.281603431316896, 25.972264743203031 ], [ -100.281746732599615, 25.972704891515235 ], [ -100.28203291584974, 25.973627038995851 ], [ -100.282089202306324, 25.973923797417001 ], [ -100.282264352212621, 25.974467790648706 ], [ -100.282230194492143, 25.974476684783919 ] ] ] ] } },
{ "type": "Feature", "properties": { "CLAVE": "SNL-SLV-PP004", "PROYECTO": "TSN", "ESTRUCTURA": "Estación", "SEGMENTO": "15-16", "ESTADO": "Nuevo León", "MUNICIPIO": "Salinas Victoria", "PROPIETARIO": "Carretera a Colombia (Monterrey - Nuevo Laredo)", "M2": 889.536, "ESTATUS": "NO LIBERADO", "COP": "NO" }, "geometry": { "type": "MultiPolygon", "coordinates": [ [ [ [ -100.28196075751714, 25.974546841624214 ], [ -100.282099492011042, 25.974510717576131 ], [ -100.282230194492143, 25.974476684783919 ], [ -100.282264352212607, 25.974467790648706 ], [ -100.282284832887925, 25.974531400640888 ], [ -100.28112764606, 25.974837252344319 ], [ -100.28112065284391, 25.974809736050144 ], [ -100.281137180051147, 25.974801490816926 ], [ -100.281152096827498, 25.974791033492693 ], [ -100.281165043905474, 25.97477861594032 ], [ -100.281175709457685, 25.974764537234346 ], [ -100.281183836607198, 25.974749136457771 ], [ -100.28196075751714, 25.974546841624214 ] ] ] ] } },
{ "type": "Feature", "properties": { "CLAVE": null, "PROYECTO": "TSNL", "ESTRUCTURA": "Base de Mantenimiento", "SEGMENTO": "S15B", "ESTADO": "Nuevo León", "MUNICIPIO": "Salinas Victoria", "PROPIETARIO": "Uso Común", "M2": 548.567, "ESTATUS": "Sin avance", "COP": "NO" }, "geometry": { "type": "MultiPolygon", "coordinates": [ [ [ [ -100.284326847384989, 25.980867914801252 ], [ -100.284307495801244, 25.980881056736166 ], [ -100.284298837441568, 25.980854189083907 ], [ -100.284080797833695, 25.980177620724263 ], [ -100.283964565557909, 25.979816951514369 ], [ -100.283703418369456, 25.979006602594158 ], [ -100.283701544035466, 25.979000861761467 ], [ -100.283661021492549, 25.97887672936033 ], [ -100.283587745622668, 25.978652267692159 ], [ -100.283609811377019, 25.978646426626664 ], [ -100.283785647647917, 25.97919250239239 ], [ -100.283787401444727, 25.979195803208246 ], [ -100.283836293503128, 25.979346470937394 ], [ -100.284027676053512, 25.97994978212466 ], [ -100.284326847384989, 25.980867914801252 ] ] ] ] } },
{ "type": "Feature", "properties": { "CLAVE": "SNL-SLV-004", "PROYECTO": "TSNL", "ESTRUCTURA": "Base de Mantenimiento", "SEGMENTO": "S15B", "ESTADO": "Nuevo León", "MUNICIPIO": "Salinas Victoria", "PROPIETARIO": "Fernando Soto Espino", "M2": 7106.608, "ESTATUS": "Sin avance", "COP": "NO" }, "geometry": { "type": "MultiPolygon", "coordinates": [ [ [ [ -100.283703418369456, 25.979006602594158 ], [ -100.283459747042485, 25.979178182817265 ], [ -100.282901288970947, 25.979571416235508 ], [ -100.282750076689126, 25.979677890139349 ], [ -100.282510179829586, 25.978937507320538 ], [ -100.283587745622668, 25.978652267692159 ], [ -100.283661021492549, 25.97887672936033 ], [ -100.283701544035466, 25.979000861761467 ], [ -100.283703418369456, 25.979006602594158 ] ] ] ] } },
{ "type": "Feature", "properties": { "CLAVE": "SNL-SLV-005", "PROYECTO": "TSNL", "ESTRUCTURA": "Base de Mantenimiento", "SEGMENTO": "S15B", "ESTADO": "Nuevo León", "MUNICIPIO": "Salinas Victoria", "PROPIETARIO": "Elizondo Quijano Francelia Juanita", "M2": 28351.473, "ESTATUS": "Sin avance", "COP": "NO" }, "geometry": { "type": "MultiPolygon", "coordinates": [ [ [ [ -100.284307496723812, 25.980881059598982 ], [ -100.283805034229715, 25.981840637259918 ], [ -100.283501915353298, 25.981998187997178 ], [ -100.282750076689126, 25.979677890139349 ], [ -100.282901288970947, 25.979571416235508 ], [ -100.283459747042485, 25.979178182817265 ], [ -100.283703418369456, 25.979006602594158 ], [ -100.283964565557909, 25.979816951514369 ], [ -100.284080797833695, 25.980177620724263 ], [ -100.284298837441568, 25.980854189083907 ], [ -100.284307496723812, 25.980881059598982 ] ] ] ] } },
{ "type": "Feature", "properties": { "CLAVE": null, "PROYECTO": "TSNL", "ESTRUCTURA": "Base de Mantenimiento", "SEGMENTO": "S15B", "ESTADO": "Nuevo León", "MUNICIPIO": "Salinas Victoria", "PROPIETARIO": "Camino a San Javier", "M2": 2694.822, "ESTATUS": "Sin avance", "COP": "NO" }, "geometry": { "type": "MultiPolygon", "coordinates": [ [ [ [ -100.2844004169622, 25.981087491639702 ], [ -100.28403400852811, 25.981839391805593 ], [ -100.28354669608089, 25.982136385449834 ], [ -100.283501915353298, 25.981998187997178 ], [ -100.283805034229715, 25.981840637259918 ], [ -100.284280214924507, 25.980933165771731 ], [ -100.284307501810588, 25.980881052655125 ], [ -100.284326847384989, 25.980867914801252 ], [ -100.284348729504757, 25.980935068629542 ], [ -100.284399382621629, 25.981084277542614 ], [ -100.2844004169622, 25.981087491639702 ] ] ] ] } },
{ "type": "Feature", "properties": { "CLAVE": "SNL-SLV-006", "PROYECTO": "TSNL", "ESTRUCTURA": "Base de Mantenimiento", "SEGMENTO": "S15B", "ESTADO": "Nuevo León", "MUNICIPIO": "Salinas Victoria", "PROPIETARIO": "Inmobiliaria MAFESA S.A. de C.V.", "M2": 42435.573, "ESTATUS": "Sin avance", "COP": "NO" }, "geometry": { "type": "MultiPolygon", "coordinates": [ [ [ [ -100.285583221866034, 25.984747788195914 ], [ -100.285170538483939, 25.984921838723384 ], [ -100.284975977803896, 25.984986165724287 ], [ -100.284781026865218, 25.985026316414729 ], [ -100.28463173335804, 25.985023152629687 ], [ -100.284536628771548, 25.985014785297079 ], [ -100.284475679083243, 25.985003230379181 ], [ -100.28354669608089, 25.982136385449834 ], [ -100.28403400852811, 25.981839391805593 ], [ -100.2844004169622, 25.981087491639702 ], [ -100.284727809657639, 25.982104817744446 ], [ -100.285305118853003, 25.983886055593032 ], [ -100.285583221866034, 25.984747788195914 ] ] ] ] } },
{ "type": "Feature", "properties": { "CLAVE": "SNL-SLV-007", "PROYECTO": "TSNL", "ESTRUCTURA": "Base de Mantenimiento", "SEGMENTO": "S15B", "ESTADO": "Nuevo León", "MUNICIPIO": "Salinas Victoria", "PROPIETARIO": "Inmobiliaria MAFESA S.A. de C.V.", "M2": 16147.987, "ESTATUS": "Sin avance", "COP": "NO" }, "geometry": { "type": "MultiPolygon", "coordinates": [ [ [ [ -100.285991499260973, 25.986012152620305 ], [ -100.284896552981209, 25.986301997113024 ], [ -100.284475679083243, 25.985003230379181 ], [ -100.284536628771548, 25.985014785297079 ], [ -100.28463173335804, 25.985023152629687 ], [ -100.284781026865218, 25.985026316414729 ], [ -100.284975977803896, 25.984986165724287 ], [ -100.285170538483939, 25.984921838723384 ], [ -100.285583221866034, 25.984747788195914 ], [ -100.285836232604609, 25.985531757325337 ], [ -100.285991499260973, 25.986012152620305 ] ] ] ] } },
{ "type": "Feature", "properties": { "CLAVE": null, "PROYECTO": "TSNL", "ESTRUCTURA": "Estación", "SEGMENTO": "S15A1", "ESTADO": "Nuevo León", "MUNICIPIO": "Santa Catarina", "PROPIETARIO": "Desconocido 1", "M2": 751.688, "ESTATUS": "Sin avance", "COP": "NO" }, "geometry": { "type": "MultiPolygon", "coordinates": [ [ [ [ -100.44716790944085, 25.678343041790647 ], [ -100.447170376547405, 25.678316730903319 ], [ -100.447852863718126, 25.678734874722991 ], [ -100.449004726814223, 25.679439390231238 ], [ -100.44932769480431, 25.679638500060545 ], [ -100.44931078365434, 25.6796606923604 ], [ -100.449212361362953, 25.679601056260154 ], [ -100.449064942328491, 25.679509582997571 ], [ -100.448762595669834, 25.679322978566347 ], [ -100.448386902571883, 25.679095331825827 ], [ -100.448205138991824, 25.678981655735502 ], [ -100.448057501728911, 25.67888959532004 ], [ -100.447913265614474, 25.67880419329839 ], [ -100.44777381507609, 25.678718461373663 ], [ -100.447534617413382, 25.678568811940121 ], [ -100.44716790944085, 25.678343041790647 ] ] ] ] } },
{ "type": "Feature", "properties": { "CLAVE": "SNL-SAN-042, SNL-SAN-043, SNL-SAN-044", "PROYECTO": "TSNL", "ESTRUCTURA": "Estación", "SEGMENTO": "S15A1", "ESTADO": "Nuevo León", "MUNICIPIO": "Santa Catarina", "PROPIETARIO": "MB Inmuebles Monterrey S.A. de C.V.", "M2": 15779.078, "ESTATUS": "Sin avance", "COP": "NO" }, "geometry": { "type": "MultiPolygon", "coordinates": [ [ [ [ -100.449647487374605, 25.678892119866596 ], [ -100.449625777592146, 25.678865302144541 ], [ -100.449610330547557, 25.678834920941718 ], [ -100.449602099064279, 25.678803363737575 ], [ -100.449598007803289, 25.678770782051775 ], [ -100.449599785314405, 25.678739867313791 ], [ -100.449603187116494, 25.678703154284214 ], [ -100.449614938043666, 25.678664912352534 ], [ -100.44962815928622, 25.678636871384551 ], [ -100.449780660244087, 25.678674263605782 ], [ -100.450254007162215, 25.678788202207969 ], [ -100.450734324359701, 25.678896325656705 ], [ -100.451187632773212, 25.67899655236576 ], [ -100.451381160023899, 25.679040123286782 ], [ -100.451479153914406, 25.679063398637645 ], [ -100.451540801438455, 25.679079584331703 ], [ -100.451613888381843, 25.679099382161912 ], [ -100.451667463990958, 25.679119200736853 ], [ -100.451790916080526, 25.679151558372574 ], [ -100.45188698167, 25.679176585506212 ], [ -100.451804073683007, 25.679441509454907 ], [ -100.451673249015414, 25.679854351668272 ], [ -100.451652714150882, 25.67991878982329 ], [ -100.451613684463268, 25.680027040003591 ], [ -100.451583389723197, 25.680111640626698 ], [ -100.451478371757901, 25.680048401719482 ], [ -100.451234405253516, 25.679896099417622 ], [ -100.450855004486101, 25.679668651816137 ], [ -100.450675742240534, 25.679558276226615 ], [ -100.450383522029284, 25.679371308281318 ], [ -100.450327557262341, 25.679336678892607 ], [ -100.450267773310031, 25.679305745917734 ], [ -100.450134321475417, 25.679219503588502 ], [ -100.450048385290145, 25.679162533175113 ], [ -100.449791754044014, 25.678995680847009 ], [ -100.449700861454005, 25.678930765990479 ], [ -100.449647487374605, 25.678892119866596 ] ] ] ] } },
{ "type": "Feature", "properties": { "CLAVE": null, "PROYECTO": "TSNL", "ESTRUCTURA": "Estación", "SEGMENTO": "S16", "ESTADO": "Nuevo León", "MUNICIPIO": "Villaldama", "PROPIETARIO": "Estación Bustamante", "M2": 9193.552, "ESTATUS": "Sin avance", "COP": "NO" }, "geometry": { "type": "MultiPolygon", "coordinates": [ [ [ [ -100.441332750670085, 26.500720506819739 ], [ -100.441327768336762, 26.500696182819734 ], [ -100.441328077503428, 26.500682438153078 ], [ -100.441337198170075, 26.500660459486401 ], [ -100.441600517003408, 26.500433245153065 ], [ -100.441936866836755, 26.500206356319715 ], [ -100.44203301650343, 26.500157988153056 ], [ -100.442042893406068, 26.500153723849273 ], [ -100.44303958855113, 26.501840674616354 ], [ -100.442798445670107, 26.501958780319786 ], [ -100.442522882336775, 26.501500577153095 ], [ -100.442566682895048, 26.501480737232708 ], [ -100.442543235003427, 26.501446482986424 ], [ -100.442370324003434, 26.501192738986411 ], [ -100.442244735836766, 26.501070701986404 ], [ -100.442048646336772, 26.500993613819741 ], [ -100.441944255670094, 26.50095917165309 ], [ -100.441845609670096, 26.500924885319755 ], [ -100.441774093336761, 26.500899377819753 ], [ -100.44157450500343, 26.500830975986403 ], [ -100.4413696866701, 26.500761700819734 ], [ -100.441355653170092, 26.500753881319742 ], [ -100.441341782336764, 26.500740452986395 ], [ -100.441332750670085, 26.500720506819739 ] ] ] ] } },
{ "type": "Feature", "properties": { "CLAVE": "SNL-NUL-060-3-GS, SNL-NUL-060-4-GS, SNL-NUL-060-GS", "PROYECTO": "TSNL", "ESTRUCTURA": "Estación", "SEGMENTO": "S20", "ESTADO": "Tamaulipas", "MUNICIPIO": "Nuevo Laredo", "PROPIETARIO": "Desconocido 4", "M2": 975.724, "ESTATUS": "Sin avance", "COP": "NO" }, "geometry": { "type": "MultiPolygon", "coordinates": [ [ [ [ -99.51774990483834, 27.466313710792413 ], [ -99.517757304618627, 27.466041558069204 ], [ -99.518088328373594, 27.46605424758382 ], [ -99.518080378358064, 27.466320717363722 ], [ -99.51774990483834, 27.466313710792413 ] ] ] ] } },
{ "type": "Feature", "properties": { "CLAVE": "SNL-NUL-060-GS", "PROYECTO": "TSNL", "ESTRUCTURA": "Estación", "SEGMENTO": "S20", "ESTADO": "Tamaulipas", "MUNICIPIO": "Nuevo Laredo", "PROPIETARIO": "Kansas City", "M2": 44616.036, "ESTATUS": "Sin avance", "COP": "NO" }, "geometry": { "type": "MultiPolygon", "coordinates": [ [ [ [ -99.520778260565649, 27.466780142666813 ], [ -99.520689405133226, 27.467052576815963 ], [ -99.520451701300985, 27.466990470267962 ], [ -99.52036923351838, 27.466968923220126 ], [ -99.518798874594438, 27.466562412790232 ], [ -99.518768306254046, 27.466554499520782 ], [ -99.518078712157788, 27.466376565191435 ], [ -99.518080378358064, 27.466320717363722 ], [ -99.518088459314356, 27.46604985868461 ], [ -99.518093335084743, 27.465574931279441 ], [ -99.520931148846003, 27.466311378158263 ], [ -99.521421683915477, 27.466439114128114 ], [ -99.522185811924572, 27.466698989688691 ], [ -99.523278492857074, 27.466982523691772 ], [ -99.523366946583337, 27.467001990474174 ], [ -99.523456896222953, 27.467014898657208 ], [ -99.523547731638601, 27.467021160683583 ], [ -99.523638836684171, 27.467020734077579 ], [ -99.523729593384559, 27.467013621733127 ], [ -99.523819386127727, 27.466999871894217 ], [ -99.523907605840819, 27.466979577827598 ], [ -99.523993654121895, 27.466952877190085 ], [ -99.52407694729915, 27.466919951094763 ], [ -99.524156920390439, 27.466881022882362 ], [ -99.524233030935576, 27.466836356606212 ], [ -99.524304762676181, 27.466786255241043 ], [ -99.524371629057569, 27.46673105862769 ], [ -99.524433176529101, 27.466671141167879 ], [ -99.524488987620586, 27.466606909284383 ], [ -99.524538683773969, 27.466538798664178 ], [ -99.524581927910859, 27.466467271302978 ], [ -99.524810137153494, 27.466708141106444 ], [ -99.524806789681392, 27.46692215767921 ], [ -99.524744159994157, 27.466996800131259 ], [ -99.524675560834183, 27.467067143753141 ], [ -99.524601361783866, 27.467132809552616 ], [ -99.524521962598442, 27.46719344373961 ], [ -99.524437791052293, 27.467248719632476 ], [ -99.524349300634199, 27.467298339418164 ], [ -99.524256968103927, 27.467342035756975 ], [ -99.524161290923558, 27.467379573222964 ], [ -99.524062784577097, 27.467410749572561 ], [ -99.523961979792929, 27.46743539683424 ], [ -99.523859419684186, 27.467453382213662 ], [ -99.523755656822331, 27.467464608809191 ], [ -99.523651250259675, 27.46746901613405 ], [ -99.523546762517086, 27.467466580442217 ], [ -99.523442756552868, 27.467457314856411 ], [ -99.523339792729416, 27.467441269297407 ], [ -99.523238425793721, 27.467418530215006 ], [ -99.520778260565649, 27.466780142666813 ] ] ] ] } },
{ "type": "Feature", "properties": { "CLAVE": "SNL-NUL-060-3-GS", "PROYECTO": "TSNL", "ESTRUCTURA": "Estación", "SEGMENTO": "S20", "ESTADO": "Tamaulipas", "MUNICIPIO": "Nuevo Laredo", "PROPIETARIO": "Desconocido 2", "M2": 2754.634, "ESTATUS": "Sin avance", "COP": "NO" }, "geometry": { "type": "MultiPolygon", "coordinates": [ [ [ [ -99.517772043200978, 27.467059599216618 ], [ -99.517771114036961, 27.466860761842376 ], [ -99.518784606917123, 27.466860551530999 ], [ -99.518769394464812, 27.467161650330649 ], [ -99.517772043200978, 27.467059599216618 ] ] ] ] } },
{ "type": "Feature", "properties": { "CLAVE": "SNL-NUL-060-1-GS, SNL-NUL-060-2-GS", "PROYECTO": "TSNL", "ESTRUCTURA": "Estación", "SEGMENTO": "S20", "ESTADO": "Tamaulipas", "MUNICIPIO": "Nuevo Laredo", "PROPIETARIO": "Desconocido 1", "M2": 12102.965, "ESTATUS": "Sin avance", "COP": "NO" }, "geometry": { "type": "MultiPolygon", "coordinates": [ [ [ [ -99.518769394464812, 27.467161650330649 ], [ -99.518784606917123, 27.466860551530999 ], [ -99.518798874594438, 27.466562412790232 ], [ -99.52036923351838, 27.466968923220126 ], [ -99.520451701300985, 27.466990470267962 ], [ -99.52043, 27.467427 ], [ -99.517711, 27.467192 ], [ -99.517712629329651, 27.467051968795744 ], [ -99.517772043200978, 27.467059599216618 ], [ -99.518769394464812, 27.467161650330649 ] ] ] ] } },
{ "type": "Feature", "properties": { "CLAVE": "SNL-NUL-060-3-GS", "PROYECTO": "TSNL", "ESTRUCTURA": "Estación", "SEGMENTO": "S20", "ESTADO": "Tamaulipas", "MUNICIPIO": "Nuevo Laredo", "PROPIETARIO": "Desconocido 3", "M2": 123.474, "ESTATUS": "Sin avance", "COP": "NO" }, "geometry": { "type": "MultiPolygon", "coordinates": [ [ [ [ -99.517712629329651, 27.467051968795744 ], [ -99.517714853978404, 27.466860773300898 ], [ -99.517771114036961, 27.466860761842376 ], [ -99.517772043200978, 27.467059599216618 ], [ -99.517712629329651, 27.467051968795744 ] ] ] ] } },
{ "type": "Feature", "properties": { "CLAVE": "SNL-NUL-040-GS, SNL-NUL-041-GS, SNL-NUL-042-GS", "PROYECTO": "TSNL", "ESTRUCTURA": "Zona de Inspección, Control y Almacenamiento", "SEGMENTO": "S20", "ESTADO": "Tamaulipas", "MUNICIPIO": "Nuevo Laredo", "PROPIETARIO": "Desconocido", "M2": 108602.204, "ESTATUS": "Sin avance", "COP": "NO" }, "geometry": { "type": "MultiPolygon", "coordinates": [ [ [ [ -99.538299919292555, 27.46333373506598 ], [ -99.538929088748858, 27.462443515813426 ], [ -99.543113155118476, 27.464797381679915 ], [ -99.545179515488286, 27.464768093548102 ], [ -99.545211625591847, 27.464769587288171 ], [ -99.545243065395937, 27.464775597676759 ], [ -99.545273041556783, 27.464785973049253 ], [ -99.545300797663259, 27.464800451596126 ], [ -99.545325633323841, 27.464818667969354 ], [ -99.545346921839936, 27.464840162501307 ], [ -99.54536412601982, 27.464864392803847 ], [ -99.545376811734144, 27.46489074745466 ], [ -99.545384658870802, 27.464918561425623 ], [ -99.545387469412873, 27.464947132863976 ], [ -99.545408866202408, 27.467329302391491 ], [ -99.538299919292555, 27.46333373506598 ] ] ] ] } }
]
}
